{"type":"FeatureCollection","version":"7.14","province":"LT","source":{"publisher":"ISTAT","reference_date":"2026-01-01","source_url":"https://www.istat.it/storage/cartografia/confini_amministrativi/generalizzati/2026/Limiti01012026_g.zip","source_page":"https://www.istat.it/notizia/confini-delle-unita-amministrative-a-fini-statistici-al-1-gennaio-2018-2/","license":"CC BY 4.0","license_url":"https://creativecommons.org/licenses/by/4.0/","source_sha256":"b011a590656c3a3ebc297fba80726a376aa843b6f164641cf6a4a990021a81d6","transform":"Generalized ISTAT municipality boundaries: Lazio subsets, WGS84 UTM32N to EPSG:4326, coordinates rounded to 6 decimals. Not legal/cadastral boundaries."},"features":[{"type":"Feature","id":"059001","properties":{"istat":"059001","name":"Aprilia","province":"LT","label":[41.58471,12.645182]},"geometry":{"type":"Polygon","coordinates":[[[12.645509,41.666842],[12.646264,41.665247],[12.645693,41.659812],[12.645531,41.659527],[12.644433,41.658479],[12.6433,41.65761],[12.647616,41.659139],[12.652893,41.662159],[12.653648,41.658371],[12.657234,41.648581],[12.657771,41.64697],[12.654858,41.640204],[12.654094,41.62955],[12.654415,41.625974],[12.653684,41.619752],[12.65229,41.611818],[12.651999,41.611179],[12.651809,41.61017],[12.651968,41.608975],[12.652293,41.607514],[12.652599,41.606819],[12.653362,41.605772],[12.661781,41.598183],[12.66322,41.598162],[12.669063,41.60021],[12.676866,41.60369],[12.685607,41.606332],[12.690224,41.607435],[12.692468,41.60811],[12.695096,41.609115],[12.696173,41.609528],[12.697488,41.610032],[12.697535,41.605831],[12.703181,41.595329],[12.71372,41.593512],[12.715987,41.593511],[12.719261,41.593531],[12.720278,41.593948],[12.722615,41.595381],[12.72293,41.595677],[12.723543,41.59723],[12.724878,41.599731],[12.726503,41.600786],[12.734427,41.604155],[12.735583,41.604365],[12.736806,41.604372],[12.736998,41.604373],[12.737736,41.604236],[12.739295,41.603889],[12.740244,41.603538],[12.740719,41.603009],[12.740992,41.60241],[12.740774,41.596956],[12.740721,41.596233],[12.740659,41.595406],[12.740594,41.594902],[12.740489,41.594088],[12.740362,41.59323],[12.740341,41.593121],[12.738837,41.590433],[12.738299,41.589581],[12.736563,41.588012],[12.733767,41.584973],[12.733398,41.584447],[12.733226,41.584064],[12.732602,41.582469],[12.732319,41.581747],[12.732393,41.581353],[12.732572,41.581032],[12.732688,41.580839],[12.732828,41.580731],[12.732921,41.580661],[12.733384,41.580501],[12.735746,41.57979],[12.736582,41.579582],[12.738298,41.579202],[12.744675,41.578661],[12.745725,41.578686],[12.746209,41.578697],[12.752297,41.577782],[12.755854,41.572736],[12.755267,41.572039],[12.754543,41.570802],[12.75112,41.562963],[12.751128,41.562746],[12.751399,41.562517],[12.75184,41.562237],[12.754057,41.561624],[12.754503,41.561551],[12.755212,41.561537],[12.756079,41.561549],[12.756469,41.561554],[12.756881,41.561579],[12.758468,41.561682],[12.760028,41.561991],[12.760849,41.562009],[12.766062,41.559831],[12.771747,41.557032],[12.771281,41.546713],[12.771057,41.544615],[12.770972,41.544597],[12.770034,41.544396],[12.76913,41.544174],[12.768844,41.544067],[12.768184,41.543822],[12.7675,41.543527],[12.76731,41.543446],[12.767002,41.542978],[12.766354,41.541608],[12.766201,41.540839],[12.763095,41.531814],[12.757548,41.523432],[12.756942,41.522574],[12.752703,41.517616],[12.75007,41.515442],[12.738709,41.507906],[12.73799,41.506385],[12.737973,41.506349],[12.737868,41.506189],[12.736551,41.50418],[12.731853,41.500772],[12.73019,41.499695],[12.729735,41.499436],[12.7269,41.497826],[12.723851,41.500698],[12.723541,41.501411],[12.723196,41.502384],[12.723073,41.502785],[12.722534,41.503804],[12.722265,41.504311],[12.722225,41.504354],[12.721779,41.50484],[12.721156,41.505134],[12.719219,41.505414],[12.702115,41.507263],[12.695648,41.506892],[12.691731,41.506881],[12.681953,41.507823],[12.680872,41.507978],[12.680602,41.508162],[12.680583,41.511839],[12.68054,41.515199],[12.680285,41.516024],[12.679866,41.517028],[12.676622,41.52095],[12.673708,41.52298],[12.654085,41.533122],[12.645645,41.536422],[12.632399,41.536784],[12.620966,41.538023],[12.620912,41.538046],[12.620237,41.538335],[12.619607,41.538804],[12.618848,41.539539],[12.618291,41.540345],[12.618187,41.541541],[12.618123,41.541971],[12.618003,41.542781],[12.617933,41.543247],[12.617377,41.544354],[12.616839,41.544627],[12.594908,41.542155],[12.593576,41.541495],[12.593414,41.541438],[12.591888,41.541174],[12.59125,41.541239],[12.590321,41.541403],[12.589269,41.541661],[12.588518,41.541878],[12.587882,41.542195],[12.587671,41.542803],[12.588275,41.544528],[12.588011,41.545313],[12.586657,41.549338],[12.584244,41.554338],[12.583476,41.555822],[12.582857,41.556919],[12.582149,41.558169],[12.575856,41.568714],[12.570286,41.577634],[12.567452,41.578699],[12.558881,41.582787],[12.551932,41.589153],[12.549815,41.591068],[12.548296,41.592228],[12.547251,41.592932],[12.546035,41.593743],[12.544436,41.594801],[12.543391,41.595455],[12.541473,41.596379],[12.540235,41.596737],[12.536601,41.597575],[12.532818,41.598397],[12.531449,41.597773],[12.531082,41.597596],[12.530708,41.597417],[12.530606,41.59748],[12.530293,41.597673],[12.530203,41.59773],[12.530158,41.598272],[12.530225,41.598372],[12.530511,41.598787],[12.5327,41.600073],[12.533944,41.600654],[12.541847,41.603887],[12.542879,41.604224],[12.543397,41.604324],[12.544047,41.604449],[12.547495,41.605069],[12.54928,41.60524],[12.551314,41.605512],[12.554081,41.609119],[12.554602,41.60994],[12.554634,41.6101],[12.554882,41.61134],[12.554934,41.611605],[12.554576,41.612543],[12.554073,41.613029],[12.55379,41.613302],[12.551043,41.615476],[12.550455,41.615508],[12.550344,41.615876],[12.55025,41.616562],[12.550229,41.616748],[12.550162,41.617364],[12.550156,41.617421],[12.550294,41.617894],[12.550463,41.61847],[12.551263,41.619184],[12.552195,41.619961],[12.552938,41.62028],[12.561681,41.623962],[12.574215,41.633159],[12.582967,41.638964],[12.594109,41.644424],[12.595143,41.645049],[12.595518,41.645587],[12.597054,41.648195],[12.597845,41.650192],[12.60143,41.652916],[12.607026,41.656797],[12.611021,41.659193],[12.613127,41.660394],[12.61553,41.661631],[12.61605,41.661867],[12.61683,41.662216],[12.627246,41.667894],[12.633907,41.671934],[12.635982,41.670193],[12.639967,41.668478],[12.64308,41.66737],[12.645509,41.666842]]]}},{"type":"Feature","id":"059002","properties":{"istat":"059002","name":"Bassiano","province":"LT","label":[41.546032,13.041816]},"geometry":{"type":"Polygon","coordinates":[[[13.069141,41.569592],[13.070541,41.568612],[13.072083,41.567452],[13.075839,41.564586],[13.078145,41.562816],[13.080181,41.560918],[13.079083,41.558813],[13.077436,41.555975],[13.07713,41.555603],[13.071487,41.550419],[13.064613,41.543297],[13.059993,41.537905],[13.058624,41.536332],[13.056269,41.535024],[13.051232,41.532894],[13.047671,41.531807],[13.046039,41.5315],[13.044171,41.530819],[13.044131,41.530801],[13.041098,41.529323],[13.034991,41.52356],[13.028303,41.51601],[13.022297,41.511322],[13.021218,41.510549],[13.016277,41.51228],[13.015014,41.512837],[13.013638,41.513534],[13.007285,41.515511],[12.99798,41.511865],[12.991461,41.515743],[12.993082,41.518365],[12.999082,41.526437],[13.00115,41.527233],[13.018709,41.536633],[13.01954,41.537297],[13.019438,41.537877],[13.015352,41.548768],[13.012363,41.554013],[13.011655,41.555236],[13.009971,41.557316],[13.007929,41.559414],[13.007038,41.55994],[13.004793,41.56036],[13.003002,41.560887],[13.001704,41.56136],[12.997084,41.563808],[12.988068,41.570362],[12.982875,41.572464],[12.986751,41.575301],[12.996053,41.581422],[13.00099,41.581055],[13.006719,41.580819],[13.007245,41.580833],[13.00775,41.580846],[13.00831,41.580953],[13.010166,41.579519],[13.015982,41.576313],[13.021569,41.573482],[13.024374,41.573007],[13.034814,41.571686],[13.044356,41.576662],[13.054018,41.577605],[13.069141,41.569592]]]}},{"type":"Feature","id":"059003","properties":{"istat":"059003","name":"Campodimele","province":"LT","label":[41.386934,13.540111]},"geometry":{"type":"Polygon","coordinates":[[[13.523534,41.423168],[13.525617,41.42318],[13.533336,41.424222],[13.539338,41.42394],[13.540521,41.423488],[13.5418,41.422978],[13.542542,41.422645],[13.543105,41.422391],[13.547625,41.419929],[13.548194,41.419583],[13.552148,41.413988],[13.554116,41.412435],[13.558382,41.408572],[13.559216,41.407634],[13.559156,41.407092],[13.558777,41.406368],[13.558245,41.405516],[13.558304,41.40446],[13.559027,41.403229],[13.560426,41.401067],[13.561014,41.400472],[13.561267,41.400336],[13.563041,41.399631],[13.564142,41.39906],[13.564902,41.398362],[13.564936,41.398331],[13.570873,41.392404],[13.575113,41.388053],[13.576079,41.387028],[13.57616,41.386852],[13.576515,41.386072],[13.576834,41.385373],[13.577839,41.383159],[13.579015,41.380257],[13.577539,41.379943],[13.577142,41.379909],[13.576948,41.379895],[13.57632,41.379852],[13.575666,41.379747],[13.574784,41.379548],[13.573821,41.379307],[13.572872,41.378963],[13.568475,41.376603],[13.567744,41.376173],[13.566375,41.375318],[13.565421,41.374606],[13.565258,41.374484],[13.561918,41.369696],[13.560546,41.36804],[13.558869,41.369737],[13.558021,41.369626],[13.557725,41.369529],[13.556634,41.369168],[13.55572,41.368826],[13.554478,41.36825],[13.553535,41.367625],[13.553344,41.367495],[13.552535,41.366936],[13.55089,41.365574],[13.539492,41.360451],[13.533408,41.36093],[13.519153,41.35111],[13.512763,41.349777],[13.507501,41.354085],[13.503958,41.357389],[13.497557,41.368026],[13.497011,41.370387],[13.496318,41.373045],[13.495949,41.374067],[13.495558,41.374567],[13.495468,41.374681],[13.494991,41.375136],[13.494417,41.375631],[13.497367,41.37663],[13.502055,41.377894],[13.505326,41.378648],[13.506002,41.378855],[13.505681,41.380327],[13.504081,41.387016],[13.503586,41.388823],[13.501707,41.39095],[13.498224,41.394557],[13.495956,41.398657],[13.493048,41.406456],[13.49275,41.407404],[13.492575,41.409257],[13.492744,41.410241],[13.492964,41.410708],[13.493122,41.411041],[13.495882,41.41376],[13.501269,41.418326],[13.504649,41.420674],[13.509723,41.423801],[13.510023,41.42379],[13.510862,41.423703],[13.511499,41.423624],[13.516989,41.423142],[13.523534,41.423168]]]}},{"type":"Feature","id":"059004","properties":{"istat":"059004","name":"Castelforte","province":"LT","label":[41.309804,13.856107]},"geometry":{"type":"Polygon","coordinates":[[[13.87368,41.335625],[13.87852,41.328775],[13.879529,41.327692],[13.880673,41.326716],[13.880744,41.326656],[13.881954,41.325644],[13.883101,41.324884],[13.883698,41.324488],[13.887804,41.319592],[13.891962,41.315733],[13.892216,41.31542],[13.892508,41.31506],[13.89273,41.314786],[13.894815,41.311637],[13.894754,41.310764],[13.894738,41.310537],[13.894069,41.309071],[13.889967,41.29891],[13.88974,41.297483],[13.886688,41.293616],[13.884032,41.291716],[13.883837,41.291627],[13.882837,41.29117],[13.882401,41.290971],[13.882337,41.290942],[13.879056,41.290784],[13.877337,41.290767],[13.857012,41.289935],[13.85106,41.289571],[13.840408,41.283493],[13.833566,41.281216],[13.82843,41.281034],[13.827746,41.283433],[13.824988,41.287308],[13.820967,41.291797],[13.819207,41.29771],[13.818637,41.302148],[13.817486,41.312805],[13.817854,41.313041],[13.819166,41.313913],[13.819903,41.314535],[13.820147,41.315101],[13.820579,41.316548],[13.820663,41.31901],[13.820418,41.319907],[13.819816,41.321471],[13.818292,41.323863],[13.817773,41.324826],[13.817645,41.325281],[13.818275,41.330783],[13.819456,41.334839],[13.820618,41.338023],[13.823138,41.338741],[13.826794,41.338164],[13.83572,41.334259],[13.841638,41.331513],[13.842422,41.331001],[13.843754,41.330692],[13.856897,41.332793],[13.86018,41.333744],[13.86321,41.334705],[13.868261,41.33703],[13.873697,41.33833],[13.873388,41.337982],[13.873346,41.337877],[13.873194,41.337495],[13.873219,41.336828],[13.873395,41.33628],[13.873497,41.336045],[13.87368,41.335625]]]}},{"type":"Feature","id":"059005","properties":{"istat":"059005","name":"Cisterna di Latina","province":"LT","label":[41.566982,12.836299]},"geometry":{"type":"Polygon","coordinates":[[[12.856361,41.665116],[12.860701,41.655476],[12.859223,41.650175],[12.860107,41.641964],[12.863271,41.63483],[12.864353,41.624267],[12.857759,41.623314],[12.855547,41.622321],[12.860467,41.610017],[12.861015,41.606149],[12.8618,41.605179],[12.861828,41.605145],[12.862781,41.604408],[12.863047,41.604203],[12.870943,41.600615],[12.875221,41.598926],[12.880181,41.598398],[12.889971,41.597297],[12.890267,41.597023],[12.890514,41.596795],[12.890689,41.596633],[12.894026,41.595867],[12.895337,41.59569],[12.895677,41.595645],[12.897142,41.595581],[12.899365,41.595686],[12.899419,41.595689],[12.901722,41.596061],[12.904323,41.596517],[12.906141,41.596984],[12.906952,41.597193],[12.908725,41.598055],[12.910496,41.598932],[12.912019,41.599699],[12.924878,41.605464],[12.927532,41.606463],[12.927527,41.605509],[12.927988,41.60462],[12.928571,41.603654],[12.929368,41.602744],[12.929792,41.602273],[12.929974,41.60207],[12.930655,41.601657],[12.931373,41.601222],[12.945389,41.588665],[12.95535,41.583618],[12.957073,41.580731],[12.956879,41.580368],[12.956769,41.579697],[12.956206,41.575854],[12.956469,41.574773],[12.956705,41.574116],[12.956755,41.57357],[12.956449,41.572662],[12.956358,41.572453],[12.95623,41.572282],[12.956049,41.572113],[12.954657,41.571238],[12.953924,41.571434],[12.951228,41.572504],[12.948979,41.57341],[12.94678,41.57471],[12.941296,41.577857],[12.940891,41.577913],[12.94056,41.577958],[12.938519,41.578006],[12.938099,41.577978],[12.937778,41.577956],[12.937717,41.577952],[12.937148,41.577747],[12.936308,41.57737],[12.927275,41.573132],[12.925123,41.571963],[12.915583,41.563163],[12.914755,41.557652],[12.918995,41.555478],[12.920667,41.554543],[12.921339,41.553808],[12.921838,41.55259],[12.922347,41.549651],[12.922425,41.548742],[12.922142,41.548211],[12.920807,41.548712],[12.903825,41.555824],[12.889465,41.561835],[12.889313,41.561899],[12.888522,41.561465],[12.888392,41.56139],[12.888297,41.56128],[12.88772,41.560599],[12.88754,41.560388],[12.886736,41.559294],[12.886202,41.558015],[12.885674,41.556178],[12.885136,41.55546],[12.884793,41.555004],[12.884686,41.554861],[12.883003,41.55362],[12.882576,41.553305],[12.880348,41.551769],[12.879976,41.551513],[12.8775,41.550196],[12.876089,41.549602],[12.874639,41.548991],[12.874594,41.548961],[12.872553,41.547577],[12.867485,41.544122],[12.865112,41.542284],[12.864537,41.54157],[12.864018,41.540925],[12.863887,41.540657],[12.862781,41.538385],[12.862715,41.53825],[12.862126,41.536738],[12.855882,41.526172],[12.847656,41.519454],[12.838222,41.511719],[12.83779,41.511008],[12.837383,41.509919],[12.836596,41.507644],[12.834807,41.500955],[12.832873,41.492821],[12.832763,41.49001],[12.832691,41.487865],[12.833017,41.486386],[12.833257,41.485907],[12.833635,41.485152],[12.833799,41.484825],[12.833897,41.484653],[12.834533,41.483543],[12.834651,41.483338],[12.83492,41.482925],[12.835546,41.481966],[12.835797,41.481553],[12.836307,41.480711],[12.836689,41.479294],[12.83628,41.477943],[12.834782,41.47472],[12.834126,41.4743],[12.832501,41.47454],[12.822107,41.476462],[12.819755,41.478922],[12.805743,41.482804],[12.79793,41.490726],[12.79259,41.503712],[12.791953,41.505876],[12.795976,41.512664],[12.796901,41.513286],[12.798164,41.51423],[12.798557,41.51501],[12.800372,41.51979],[12.800409,41.520099],[12.799588,41.522044],[12.799224,41.522552],[12.796682,41.523622],[12.79621,41.523764],[12.794831,41.523791],[12.789366,41.52837],[12.784812,41.536085],[12.782678,41.540293],[12.782618,41.541731],[12.781756,41.544452],[12.781371,41.544861],[12.78032,41.545481],[12.77938,41.545588],[12.77897,41.54558],[12.778626,41.545573],[12.777692,41.545509],[12.771057,41.544615],[12.771281,41.546713],[12.771747,41.557032],[12.766062,41.559831],[12.760849,41.562009],[12.760028,41.561991],[12.758468,41.561682],[12.756881,41.561579],[12.756469,41.561554],[12.756079,41.561549],[12.755212,41.561537],[12.754503,41.561551],[12.754057,41.561624],[12.75184,41.562237],[12.751399,41.562517],[12.751128,41.562746],[12.75112,41.562963],[12.754543,41.570802],[12.755267,41.572039],[12.755854,41.572736],[12.757461,41.574173],[12.761029,41.577447],[12.767069,41.584068],[12.768729,41.587564],[12.768778,41.589085],[12.768798,41.589714],[12.769453,41.593339],[12.769752,41.594045],[12.770821,41.595779],[12.7712,41.596298],[12.771908,41.596986],[12.772363,41.597336],[12.772991,41.597595],[12.773855,41.59789],[12.774693,41.598052],[12.776064,41.598855],[12.777472,41.600581],[12.778331,41.601741],[12.778522,41.602149],[12.780919,41.608167],[12.781658,41.611479],[12.785783,41.618493],[12.791596,41.621651],[12.796129,41.622534],[12.80191,41.621512],[12.802726,41.621361],[12.803275,41.62126],[12.807961,41.620384],[12.810084,41.622579],[12.810397,41.628916],[12.809252,41.635442],[12.813302,41.638509],[12.814137,41.638328],[12.815355,41.638126],[12.815735,41.638181],[12.815929,41.63821],[12.823712,41.640607],[12.824742,41.641059],[12.825195,41.641508],[12.825529,41.642631],[12.825466,41.643448],[12.825067,41.643912],[12.824914,41.644014],[12.822539,41.645874],[12.820017,41.648002],[12.819358,41.648677],[12.818684,41.650158],[12.818849,41.650612],[12.823778,41.655989],[12.826371,41.657952],[12.827117,41.658436],[12.829135,41.658994],[12.830162,41.658798],[12.832617,41.655763],[12.834748,41.652733],[12.835032,41.652274],[12.838135,41.653908],[12.839648,41.656354],[12.840407,41.658244],[12.839751,41.664782],[12.851259,41.666421],[12.856361,41.665116]]]}},{"type":"Feature","id":"059006","properties":{"istat":"059006","name":"Cori","province":"LT","label":[41.653683,12.914884]},"geometry":{"type":"Polygon","coordinates":[[[12.859753,41.711658],[12.864239,41.708024],[12.873812,41.704175],[12.87501,41.704297],[12.876291,41.704087],[12.876607,41.704014],[12.877837,41.703486],[12.879147,41.702735],[12.880343,41.701848],[12.885398,41.698633],[12.894018,41.695366],[12.899391,41.69014],[12.896866,41.688956],[12.892196,41.685918],[12.891836,41.685137],[12.891258,41.683329],[12.890835,41.681984],[12.890798,41.681656],[12.895373,41.679444],[12.89697,41.678764],[12.899263,41.678082],[12.906865,41.675928],[12.91039,41.675016],[12.910516,41.674987],[12.911034,41.674866],[12.912134,41.67461],[12.915402,41.67385],[12.917158,41.673754],[12.932941,41.672064],[12.939486,41.671534],[12.943128,41.674175],[12.948905,41.669676],[12.9511,41.66789],[12.954002,41.664589],[12.962959,41.657472],[12.972694,41.651891],[12.980883,41.647021],[12.986021,41.645519],[12.987072,41.640803],[12.982479,41.635449],[12.97661,41.624904],[12.975483,41.62266],[12.972757,41.618806],[12.966791,41.613136],[12.958074,41.613271],[12.950029,41.614351],[12.940919,41.613433],[12.939629,41.612482],[12.935412,41.610029],[12.932712,41.608542],[12.932471,41.608437],[12.930142,41.607432],[12.929966,41.607357],[12.92865,41.606799],[12.927532,41.606463],[12.924878,41.605464],[12.912019,41.599699],[12.910496,41.598932],[12.908725,41.598055],[12.906952,41.597193],[12.906141,41.596984],[12.904323,41.596517],[12.901722,41.596061],[12.899419,41.595689],[12.899365,41.595686],[12.897142,41.595581],[12.895677,41.595645],[12.895337,41.59569],[12.894026,41.595867],[12.890689,41.596633],[12.890514,41.596795],[12.890267,41.597023],[12.889971,41.597297],[12.880181,41.598398],[12.875221,41.598926],[12.870943,41.600615],[12.863047,41.604203],[12.862781,41.604408],[12.861828,41.605145],[12.8618,41.605179],[12.861015,41.606149],[12.860467,41.610017],[12.855547,41.622321],[12.857759,41.623314],[12.864353,41.624267],[12.863271,41.63483],[12.860107,41.641964],[12.859223,41.650175],[12.860701,41.655476],[12.856361,41.665116],[12.851259,41.666421],[12.851383,41.668182],[12.849545,41.67683],[12.851775,41.686359],[12.852908,41.688045],[12.853089,41.6884],[12.853901,41.689997],[12.854663,41.691651],[12.854508,41.693065],[12.854088,41.69629],[12.853912,41.697601],[12.85151,41.700834],[12.851125,41.701198],[12.847934,41.699607],[12.84698,41.698973],[12.846547,41.698669],[12.840422,41.701187],[12.836589,41.703904],[12.836825,41.704491],[12.836989,41.704895],[12.837655,41.705437],[12.838219,41.705895],[12.838451,41.706084],[12.840222,41.707349],[12.840946,41.707803],[12.841755,41.708306],[12.846064,41.710921],[12.849829,41.71393],[12.850919,41.714833],[12.854492,41.712012],[12.859753,41.711658]]]}},{"type":"Feature","id":"059007","properties":{"istat":"059007","name":"Fondi","province":"LT","label":[41.339255,13.434547]},"geometry":{"type":"Polygon","coordinates":[[[13.399698,41.401967],[13.408865,41.397823],[13.420496,41.397283],[13.427286,41.397288],[13.427317,41.396638],[13.428511,41.393791],[13.42914,41.393006],[13.429887,41.392252],[13.430479,41.392],[13.431326,41.391531],[13.43172,41.391115],[13.431888,41.390936],[13.431942,41.390877],[13.432793,41.389822],[13.434069,41.387976],[13.434453,41.387322],[13.434879,41.38659],[13.434926,41.386114],[13.435226,41.381597],[13.43566,41.37503],[13.435891,41.374247],[13.436632,41.373871],[13.437005,41.373701],[13.437731,41.37337],[13.439033,41.372874],[13.439766,41.372715],[13.440401,41.372668],[13.440851,41.37292],[13.441426,41.373321],[13.447167,41.376336],[13.454184,41.378423],[13.45522,41.378608],[13.458319,41.379064],[13.459858,41.379126],[13.461654,41.378926],[13.470159,41.377969],[13.471748,41.377475],[13.473058,41.376993],[13.473473,41.376841],[13.475089,41.376287],[13.476451,41.375846],[13.476929,41.375842],[13.47746,41.376199],[13.47932,41.377486],[13.48294,41.380082],[13.484975,41.381587],[13.493215,41.376894],[13.494417,41.375631],[13.494991,41.375136],[13.495468,41.374681],[13.495558,41.374567],[13.495949,41.374067],[13.496318,41.373045],[13.497011,41.370387],[13.497557,41.368026],[13.503958,41.357389],[13.507501,41.354085],[13.512763,41.349777],[13.509844,41.346812],[13.501814,41.337817],[13.491319,41.325969],[13.485759,41.319401],[13.480477,41.313832],[13.472598,41.305846],[13.470086,41.303467],[13.469113,41.302717],[13.468091,41.302487],[13.466591,41.301757],[13.464418,41.30068],[13.460721,41.29738],[13.459869,41.296549],[13.458982,41.295674],[13.454962,41.29144],[13.453427,41.288019],[13.449707,41.285233],[13.446335,41.28408],[13.43868,41.281905],[13.432653,41.285446],[13.430694,41.286516],[13.430247,41.28671],[13.422658,41.288452],[13.42123,41.288759],[13.419671,41.289044],[13.409156,41.289223],[13.406383,41.288861],[13.404636,41.284834],[13.396869,41.275989],[13.396081,41.273593],[13.395641,41.273887],[13.393114,41.274899],[13.392201,41.275234],[13.383852,41.278196],[13.381639,41.278964],[13.379348,41.279731],[13.374494,41.281305],[13.369998,41.282664],[13.362494,41.284838],[13.36009,41.285516],[13.358675,41.285902],[13.355455,41.286765],[13.353412,41.287274],[13.350204,41.288057],[13.345969,41.28906],[13.3432,41.289641],[13.327215,41.292901],[13.323019,41.293653],[13.32209,41.293814],[13.318245,41.294383],[13.297052,41.296409],[13.290339,41.297017],[13.28963,41.297043],[13.281285,41.297151],[13.281304,41.297301],[13.281583,41.298081],[13.283089,41.299188],[13.283628,41.299546],[13.283955,41.299763],[13.286157,41.301177],[13.29195,41.30489],[13.300569,41.310611],[13.302194,41.315058],[13.310933,41.32264],[13.313287,41.325445],[13.313839,41.32563],[13.324021,41.328892],[13.330491,41.327177],[13.33154,41.326477],[13.333147,41.325624],[13.341369,41.325853],[13.34191,41.326077],[13.34301,41.327301],[13.343583,41.328362],[13.342728,41.330512],[13.34389,41.333531],[13.347109,41.327786],[13.359859,41.324028],[13.359905,41.324023],[13.359975,41.324015],[13.360506,41.323954],[13.360951,41.324329],[13.362312,41.325799],[13.363014,41.326641],[13.365898,41.330534],[13.366384,41.3312],[13.367008,41.332468],[13.367217,41.333228],[13.367228,41.334225],[13.366299,41.338107],[13.365693,41.340402],[13.367622,41.350044],[13.367726,41.370209],[13.360327,41.378239],[13.359095,41.378781],[13.358134,41.379407],[13.356335,41.381065],[13.355049,41.385098],[13.354773,41.38604],[13.354666,41.387014],[13.355397,41.392653],[13.355512,41.393247],[13.355993,41.394147],[13.356619,41.39492],[13.357098,41.395406],[13.358587,41.396615],[13.359279,41.397129],[13.360226,41.397801],[13.362759,41.397396],[13.366097,41.397266],[13.37019,41.39945],[13.370476,41.399945],[13.370524,41.400061],[13.375537,41.403728],[13.386525,41.404479],[13.399698,41.401967]]]}},{"type":"Feature","id":"059008","properties":{"istat":"059008","name":"Formia","province":"LT","label":[41.290666,13.636263]},"geometry":{"type":"Polygon","coordinates":[[[13.626397,41.31652],[13.627123,41.317166],[13.627914,41.317647],[13.631273,41.318146],[13.634204,41.318532],[13.640905,41.319158],[13.6471,41.318889],[13.651347,41.317974],[13.650696,41.317735],[13.650498,41.317446],[13.650884,41.31553],[13.651225,41.314652],[13.654998,41.314166],[13.678154,41.307539],[13.684991,41.303169],[13.695909,41.288452],[13.703863,41.277894],[13.704135,41.277773],[13.708035,41.276993],[13.707101,41.275362],[13.706845,41.275007],[13.706385,41.274734],[13.696854,41.27168],[13.694624,41.271123],[13.693808,41.270791],[13.690634,41.268864],[13.689719,41.268077],[13.689161,41.267362],[13.686868,41.263795],[13.686394,41.262995],[13.686231,41.262182],[13.686769,41.249623],[13.687142,41.248887],[13.689017,41.246488],[13.683653,41.244476],[13.680057,41.245043],[13.677542,41.245663],[13.670538,41.247541],[13.669947,41.247719],[13.669109,41.24811],[13.668755,41.248276],[13.668561,41.248387],[13.666852,41.249993],[13.666382,41.250523],[13.666246,41.250682],[13.66603,41.251214],[13.664393,41.252655],[13.661969,41.253734],[13.655651,41.255801],[13.652338,41.256812],[13.651273,41.257103],[13.642868,41.258948],[13.634433,41.260032],[13.634208,41.26006],[13.632094,41.260249],[13.620172,41.260156],[13.618086,41.259697],[13.608381,41.255505],[13.60787,41.255202],[13.607533,41.254978],[13.607369,41.254743],[13.607325,41.254541],[13.607341,41.254512],[13.607438,41.254328],[13.607921,41.253961],[13.604214,41.252557],[13.594802,41.250307],[13.593149,41.250082],[13.592202,41.249918],[13.592051,41.249882],[13.591307,41.249655],[13.589688,41.249155],[13.589373,41.249057],[13.589034,41.248933],[13.587809,41.248477],[13.587006,41.248177],[13.586799,41.248099],[13.585832,41.247709],[13.584675,41.247189],[13.582174,41.245958],[13.581309,41.245491],[13.580196,41.244879],[13.579624,41.244561],[13.579406,41.244422],[13.57637,41.248849],[13.567376,41.253801],[13.565878,41.254063],[13.565225,41.254383],[13.564479,41.254749],[13.563666,41.255206],[13.563463,41.255321],[13.558686,41.258169],[13.556435,41.25962],[13.554084,41.261167],[13.553819,41.261363],[13.553247,41.261786],[13.551583,41.265242],[13.552892,41.265888],[13.55605,41.267908],[13.557788,41.269562],[13.559261,41.271141],[13.560236,41.272403],[13.560617,41.273509],[13.561431,41.275057],[13.562153,41.275897],[13.565053,41.278668],[13.566289,41.279479],[13.567479,41.280242],[13.568704,41.280994],[13.571149,41.282176],[13.57249,41.282599],[13.572557,41.282604],[13.577525,41.285591],[13.578578,41.292879],[13.581183,41.30682],[13.578357,41.311268],[13.57653,41.312057],[13.576467,41.312369],[13.576436,41.312525],[13.576466,41.313905],[13.579642,41.317862],[13.58049,41.31845],[13.583625,41.320395],[13.585121,41.321261],[13.586452,41.321719],[13.58758,41.322047],[13.591485,41.326087],[13.595837,41.330951],[13.597807,41.333803],[13.603279,41.337248],[13.603312,41.336797],[13.603377,41.336537],[13.603515,41.336185],[13.60389,41.335436],[13.604933,41.334012],[13.616133,41.321134],[13.617655,41.31973],[13.618502,41.319264],[13.623799,41.316777],[13.626397,41.31652]]]}},{"type":"Feature","id":"059009","properties":{"istat":"059009","name":"Gaeta","province":"LT","label":[41.233667,13.531104]},"geometry":{"type":"Polygon","coordinates":[[[13.563463,41.255321],[13.563666,41.255206],[13.564479,41.254749],[13.565225,41.254383],[13.565878,41.254063],[13.567376,41.253801],[13.57637,41.248849],[13.579406,41.244422],[13.577863,41.243489],[13.577682,41.243362],[13.57656,41.242519],[13.576416,41.2424],[13.576244,41.242256],[13.574001,41.240365],[13.57385,41.240192],[13.571795,41.236968],[13.570126,41.232586],[13.569356,41.225242],[13.571234,41.217815],[13.576107,41.214834],[13.578953,41.214356],[13.589464,41.209944],[13.584555,41.206903],[13.577538,41.204602],[13.575299,41.204143],[13.570136,41.204111],[13.57065,41.206725],[13.570716,41.206762],[13.570787,41.207021],[13.570651,41.207183],[13.570156,41.207429],[13.568765,41.208114],[13.566848,41.208795],[13.563039,41.20984],[13.561351,41.210264],[13.559658,41.210641],[13.557959,41.210935],[13.557222,41.211],[13.5549,41.210844],[13.553621,41.208857],[13.545601,41.209405],[13.53902,41.213674],[13.533494,41.21749],[13.53182,41.218557],[13.529304,41.219992],[13.524156,41.222499],[13.522663,41.223158],[13.521155,41.223788],[13.519565,41.224344],[13.518306,41.224684],[13.515011,41.225056],[13.513895,41.225097],[13.5133,41.224978],[13.512606,41.224791],[13.51225,41.224622],[13.51165,41.224297],[13.511404,41.224065],[13.511801,41.223323],[13.512296,41.222316],[13.512135,41.222023],[13.511597,41.221666],[13.510802,41.221475],[13.510312,41.221426],[13.503586,41.221302],[13.503292,41.22133],[13.502975,41.221704],[13.503144,41.22298],[13.503401,41.223965],[13.503535,41.224159],[13.503744,41.22433],[13.503894,41.224423],[13.504299,41.224601],[13.490163,41.234748],[13.484907,41.23806],[13.487192,41.238313],[13.489865,41.239523],[13.493752,41.244161],[13.502772,41.24845],[13.506826,41.250132],[13.513111,41.251925],[13.522776,41.254147],[13.529498,41.255656],[13.536189,41.256437],[13.542176,41.259901],[13.545869,41.262397],[13.54773,41.263463],[13.548481,41.26383],[13.548829,41.264],[13.551583,41.265242],[13.553247,41.261786],[13.553819,41.261363],[13.554084,41.261167],[13.556435,41.25962],[13.558686,41.258169],[13.563463,41.255321]]]}},{"type":"Feature","id":"059010","properties":{"istat":"059010","name":"Itri","province":"LT","label":[41.304657,13.52606]},"geometry":{"type":"Polygon","coordinates":[[[13.584317,41.358477],[13.589644,41.354348],[13.591843,41.352625],[13.5986,41.344197],[13.602392,41.341254],[13.602854,41.340349],[13.60312,41.339082],[13.603372,41.337852],[13.603279,41.337248],[13.597807,41.333803],[13.595837,41.330951],[13.591485,41.326087],[13.58758,41.322047],[13.586452,41.321719],[13.585121,41.321261],[13.583625,41.320395],[13.58049,41.31845],[13.579642,41.317862],[13.576466,41.313905],[13.576436,41.312525],[13.576467,41.312369],[13.57653,41.312057],[13.578357,41.311268],[13.581183,41.30682],[13.578578,41.292879],[13.577525,41.285591],[13.572557,41.282604],[13.57249,41.282599],[13.571149,41.282176],[13.568704,41.280994],[13.567479,41.280242],[13.566289,41.279479],[13.565053,41.278668],[13.562153,41.275897],[13.561431,41.275057],[13.560617,41.273509],[13.560236,41.272403],[13.559261,41.271141],[13.557788,41.269562],[13.55605,41.267908],[13.552892,41.265888],[13.551583,41.265242],[13.548829,41.264],[13.548481,41.26383],[13.54773,41.263463],[13.545869,41.262397],[13.542176,41.259901],[13.536189,41.256437],[13.529498,41.255656],[13.522776,41.254147],[13.513111,41.251925],[13.506826,41.250132],[13.502772,41.24845],[13.493752,41.244161],[13.489865,41.239523],[13.487192,41.238313],[13.484907,41.23806],[13.475209,41.239433],[13.475317,41.241909],[13.475249,41.242817],[13.474823,41.243752],[13.47404,41.244561],[13.472954,41.245022],[13.471821,41.245548],[13.471209,41.246234],[13.471096,41.246374],[13.470594,41.247001],[13.470157,41.247841],[13.469173,41.25163],[13.469161,41.252099],[13.469891,41.255069],[13.470137,41.255811],[13.470634,41.260564],[13.470582,41.261322],[13.470403,41.262293],[13.469517,41.265515],[13.465829,41.273663],[13.460427,41.278376],[13.455605,41.281398],[13.45395,41.282727],[13.453148,41.283695],[13.452946,41.284274],[13.452731,41.284994],[13.452658,41.285681],[13.452898,41.286928],[13.452964,41.28715],[13.453076,41.287389],[13.45335,41.287928],[13.453427,41.288019],[13.454962,41.29144],[13.458982,41.295674],[13.459869,41.296549],[13.460721,41.29738],[13.464418,41.30068],[13.466591,41.301757],[13.468091,41.302487],[13.469113,41.302717],[13.470086,41.303467],[13.472598,41.305846],[13.480477,41.313832],[13.485759,41.319401],[13.491319,41.325969],[13.501814,41.337817],[13.509844,41.346812],[13.512763,41.349777],[13.519153,41.35111],[13.533408,41.36093],[13.539492,41.360451],[13.55089,41.365574],[13.552535,41.366936],[13.553344,41.367495],[13.553535,41.367625],[13.554478,41.36825],[13.55572,41.368826],[13.556634,41.369168],[13.557725,41.369529],[13.558021,41.369626],[13.558869,41.369737],[13.560546,41.36804],[13.568503,41.366022],[13.571155,41.365213],[13.571921,41.364908],[13.572743,41.364574],[13.572972,41.36448],[13.573758,41.364111],[13.574293,41.363846],[13.582609,41.359576],[13.582833,41.359445],[13.583432,41.359089],[13.584317,41.358477]]]}},{"type":"Feature","id":"059011","properties":{"istat":"059011","name":"Latina","province":"LT","label":[41.472784,12.869057]},"geometry":{"type":"Polygon","coordinates":[[[13.002317,41.463373],[13.00669,41.459959],[13.007964,41.458968],[13.009192,41.458012],[13.010812,41.456807],[13.011653,41.456181],[13.016864,41.452179],[13.02307,41.447324],[13.023966,41.446565],[13.024524,41.445958],[13.024697,41.445768],[13.022832,41.444502],[13.017814,41.441021],[13.00195,41.429909],[13.000575,41.428705],[12.999639,41.427861],[12.998889,41.427067],[12.998977,41.426928],[12.999354,41.426344],[12.999841,41.42585],[13.000071,41.425617],[12.999327,41.424055],[12.996023,41.416802],[12.994066,41.411922],[12.993578,41.410669],[12.99306,41.409634],[12.992428,41.4084],[12.992371,41.408289],[12.991524,41.407472],[12.984549,41.402045],[12.971044,41.391631],[12.969991,41.390911],[12.96853,41.390543],[12.967216,41.390357],[12.966792,41.390296],[12.965005,41.390065],[12.947963,41.388122],[12.936904,41.38731],[12.926841,41.386671],[12.925039,41.386629],[12.921762,41.386552],[12.920414,41.386431],[12.919284,41.386249],[12.918633,41.38602],[12.917945,41.385512],[12.917166,41.384915],[12.915951,41.383864],[12.915519,41.383309],[12.915232,41.383173],[12.906847,41.388428],[12.900883,41.391656],[12.880573,41.401303],[12.873958,41.404303],[12.868124,41.406743],[12.865006,41.407914],[12.862172,41.40896],[12.860792,41.409447],[12.854489,41.411508],[12.853233,41.411825],[12.853029,41.411874],[12.851433,41.412258],[12.84976,41.412634],[12.849271,41.412741],[12.848069,41.413003],[12.847921,41.413036],[12.846414,41.413349],[12.845122,41.413609],[12.843558,41.413878],[12.841889,41.414144],[12.841539,41.414196],[12.840491,41.414351],[12.838261,41.414636],[12.836264,41.414868],[12.829851,41.414758],[12.82969,41.414755],[12.824891,41.414515],[12.819467,41.414126],[12.817263,41.413968],[12.812602,41.41367],[12.806891,41.413919],[12.802367,41.414977],[12.799323,41.415966],[12.798487,41.416253],[12.797627,41.416575],[12.797479,41.416627],[12.796992,41.416762],[12.794351,41.417335],[12.793921,41.417402],[12.79306,41.417536],[12.791854,41.417704],[12.789127,41.417923],[12.783045,41.417882],[12.78243,41.417876],[12.780789,41.417786],[12.779402,41.417626],[12.77909,41.417587],[12.77861,41.417519],[12.777397,41.417341],[12.777291,41.417323],[12.776811,41.417222],[12.774942,41.416807],[12.774162,41.416577],[12.773219,41.416296],[12.773774,41.420594],[12.77492,41.42347],[12.767338,41.435205],[12.767152,41.435454],[12.766746,41.435776],[12.76374,41.438163],[12.754225,41.445715],[12.752496,41.445326],[12.751916,41.445038],[12.749836,41.444003],[12.749161,41.444042],[12.746634,41.444184],[12.746127,41.444281],[12.744863,41.444521],[12.741732,41.445753],[12.740039,41.446543],[12.738689,41.447181],[12.737948,41.456526],[12.738202,41.457071],[12.738916,41.457885],[12.739587,41.458214],[12.74113,41.458605],[12.743276,41.458891],[12.746499,41.463653],[12.747746,41.471884],[12.747875,41.473347],[12.747582,41.474194],[12.745101,41.477742],[12.744655,41.478157],[12.743584,41.47898],[12.741982,41.479618],[12.740088,41.480337],[12.739389,41.480117],[12.738616,41.479966],[12.736118,41.4798],[12.735437,41.479948],[12.734755,41.480096],[12.731632,41.481166],[12.728248,41.482577],[12.727303,41.483265],[12.726906,41.483642],[12.7267,41.484072],[12.720139,41.499516],[12.723196,41.502384],[12.723541,41.501411],[12.723851,41.500698],[12.7269,41.497826],[12.729735,41.499436],[12.73019,41.499695],[12.731853,41.500772],[12.736551,41.50418],[12.737868,41.506189],[12.737973,41.506349],[12.73799,41.506385],[12.738709,41.507906],[12.75007,41.515442],[12.752703,41.517616],[12.756942,41.522574],[12.757548,41.523432],[12.763095,41.531814],[12.766201,41.540839],[12.766354,41.541608],[12.767002,41.542978],[12.76731,41.543446],[12.7675,41.543527],[12.768184,41.543822],[12.768844,41.544067],[12.76913,41.544174],[12.770034,41.544396],[12.770972,41.544597],[12.771057,41.544615],[12.777692,41.545509],[12.778626,41.545573],[12.77897,41.54558],[12.77938,41.545588],[12.78032,41.545481],[12.781371,41.544861],[12.781756,41.544452],[12.782618,41.541731],[12.782678,41.540293],[12.784812,41.536085],[12.789366,41.52837],[12.794831,41.523791],[12.79621,41.523764],[12.796682,41.523622],[12.799224,41.522552],[12.799588,41.522044],[12.800409,41.520099],[12.800372,41.51979],[12.798557,41.51501],[12.798164,41.51423],[12.796901,41.513286],[12.795976,41.512664],[12.791953,41.505876],[12.79259,41.503712],[12.79793,41.490726],[12.805743,41.482804],[12.819755,41.478922],[12.822107,41.476462],[12.832501,41.47454],[12.834126,41.4743],[12.834782,41.47472],[12.83628,41.477943],[12.836689,41.479294],[12.836307,41.480711],[12.835797,41.481553],[12.835546,41.481966],[12.83492,41.482925],[12.834651,41.483338],[12.834533,41.483543],[12.833897,41.484653],[12.833799,41.484825],[12.833635,41.485152],[12.833257,41.485907],[12.833017,41.486386],[12.832691,41.487865],[12.832763,41.49001],[12.832873,41.492821],[12.834807,41.500955],[12.836596,41.507644],[12.837383,41.509919],[12.83779,41.511008],[12.838222,41.511719],[12.847656,41.519454],[12.855882,41.526172],[12.862126,41.536738],[12.862715,41.53825],[12.862781,41.538385],[12.863887,41.540657],[12.864018,41.540925],[12.864537,41.54157],[12.865112,41.542284],[12.867485,41.544122],[12.872553,41.547577],[12.874594,41.548961],[12.874639,41.548991],[12.876089,41.549602],[12.8775,41.550196],[12.879976,41.551513],[12.880348,41.551769],[12.882576,41.553305],[12.883003,41.55362],[12.884686,41.554861],[12.884793,41.555004],[12.885136,41.55546],[12.885674,41.556178],[12.886202,41.558015],[12.886736,41.559294],[12.88754,41.560388],[12.88772,41.560599],[12.888297,41.56128],[12.888392,41.56139],[12.888522,41.561465],[12.889313,41.561899],[12.889465,41.561835],[12.903825,41.555824],[12.920807,41.548712],[12.922142,41.548211],[12.930248,41.544803],[12.94173,41.539981],[12.947289,41.537674],[12.952117,41.535675],[12.955404,41.529795],[12.953529,41.518216],[12.955644,41.514965],[12.956252,41.513913],[12.956566,41.512695],[12.956795,41.511521],[12.956642,41.510284],[12.956058,41.509435],[12.95456,41.507524],[12.953887,41.50684],[12.953202,41.501314],[12.969742,41.488729],[12.977017,41.483165],[12.991009,41.47222],[13.002317,41.463373]]]}},{"type":"Feature","id":"059012","properties":{"istat":"059012","name":"Lenola","province":"LT","label":[41.4195,13.469725]},"geometry":{"type":"Polygon","coordinates":[[[13.484612,41.438635],[13.493654,41.436114],[13.494639,41.436458],[13.495557,41.436625],[13.496729,41.436678],[13.497929,41.436527],[13.502304,41.435757],[13.505276,41.435078],[13.505517,41.434992],[13.507436,41.434304],[13.512487,41.432188],[13.511499,41.423624],[13.510862,41.423703],[13.510023,41.42379],[13.509723,41.423801],[13.504649,41.420674],[13.501269,41.418326],[13.495882,41.41376],[13.493122,41.411041],[13.492964,41.410708],[13.492744,41.410241],[13.492575,41.409257],[13.49275,41.407404],[13.493048,41.406456],[13.495956,41.398657],[13.498224,41.394557],[13.501707,41.39095],[13.503586,41.388823],[13.504081,41.387016],[13.505681,41.380327],[13.506002,41.378855],[13.505326,41.378648],[13.502055,41.377894],[13.497367,41.37663],[13.494417,41.375631],[13.493215,41.376894],[13.484975,41.381587],[13.48294,41.380082],[13.47932,41.377486],[13.47746,41.376199],[13.476929,41.375842],[13.476451,41.375846],[13.475089,41.376287],[13.473473,41.376841],[13.473058,41.376993],[13.471748,41.377475],[13.470159,41.377969],[13.461654,41.378926],[13.459858,41.379126],[13.458319,41.379064],[13.45522,41.378608],[13.454184,41.378423],[13.447167,41.376336],[13.441426,41.373321],[13.440851,41.37292],[13.440401,41.372668],[13.439766,41.372715],[13.439033,41.372874],[13.437731,41.37337],[13.437005,41.373701],[13.436632,41.373871],[13.435891,41.374247],[13.43566,41.37503],[13.435226,41.381597],[13.434926,41.386114],[13.434879,41.38659],[13.434453,41.387322],[13.434069,41.387976],[13.432793,41.389822],[13.431942,41.390877],[13.431888,41.390936],[13.43172,41.391115],[13.431326,41.391531],[13.430479,41.392],[13.429887,41.392252],[13.42914,41.393006],[13.428511,41.393791],[13.427317,41.396638],[13.427286,41.397288],[13.428202,41.4021],[13.432439,41.410977],[13.435732,41.417351],[13.4385,41.42519],[13.438796,41.42679],[13.438424,41.428295],[13.437899,41.429349],[13.429404,41.449015],[13.432001,41.458473],[13.436743,41.460959],[13.44534,41.464994],[13.450751,41.461066],[13.452522,41.458543],[13.453488,41.455674],[13.4542,41.452239],[13.454841,41.45012],[13.455649,41.449373],[13.458236,41.448309],[13.467021,41.444802],[13.469188,41.444101],[13.470348,41.44375],[13.472219,41.443209],[13.484612,41.438635]]]}},{"type":"Feature","id":"059013","properties":{"istat":"059013","name":"Maenza","province":"LT","label":[41.544762,13.180205]},"geometry":{"type":"Polygon","coordinates":[[[13.194947,41.587848],[13.196332,41.587645],[13.19732,41.587091],[13.197403,41.586967],[13.197708,41.586496],[13.197833,41.585857],[13.198109,41.582871],[13.199173,41.579491],[13.199277,41.579296],[13.199656,41.578582],[13.201429,41.575131],[13.200236,41.572357],[13.200051,41.567306],[13.200451,41.562048],[13.202133,41.554855],[13.207895,41.547404],[13.212369,41.543427],[13.218419,41.541415],[13.221737,41.538834],[13.225824,41.53273],[13.226196,41.531337],[13.226238,41.531176],[13.226332,41.530821],[13.227442,41.526557],[13.227464,41.526444],[13.227654,41.525419],[13.227635,41.524308],[13.227575,41.523481],[13.227407,41.523045],[13.226038,41.516987],[13.223787,41.511649],[13.223649,41.511528],[13.221912,41.510015],[13.219536,41.508203],[13.216001,41.505521],[13.215574,41.505379],[13.213523,41.505223],[13.211927,41.505304],[13.209896,41.505562],[13.207515,41.506471],[13.193515,41.507059],[13.192967,41.506962],[13.190655,41.506257],[13.189361,41.505711],[13.187805,41.505038],[13.185282,41.503691],[13.183055,41.503204],[13.170222,41.506215],[13.16336,41.507792],[13.163661,41.511567],[13.165101,41.517374],[13.167116,41.525836],[13.166486,41.535602],[13.147074,41.546097],[13.132301,41.549119],[13.130506,41.549414],[13.12542,41.549844],[13.125008,41.550449],[13.124796,41.551159],[13.123913,41.555621],[13.123977,41.556627],[13.124409,41.557165],[13.124441,41.557204],[13.1302,41.560829],[13.130625,41.560867],[13.131934,41.560982],[13.133765,41.561069],[13.145384,41.564964],[13.146562,41.565714],[13.147298,41.566358],[13.147441,41.567267],[13.150171,41.569308],[13.156466,41.572059],[13.158049,41.572485],[13.158431,41.572587],[13.159771,41.572718],[13.161867,41.57284],[13.163907,41.573199],[13.166838,41.57384],[13.16838,41.574495],[13.170875,41.57666],[13.171825,41.577818],[13.175066,41.583569],[13.177834,41.583785],[13.183457,41.584306],[13.184437,41.584477],[13.185286,41.584946],[13.185435,41.585652],[13.185418,41.587111],[13.185556,41.587764],[13.186759,41.588053],[13.189338,41.588112],[13.194947,41.587848]]]}},{"type":"Feature","id":"059014","properties":{"istat":"059014","name":"Minturno","province":"LT","label":[41.267093,13.738338]},"geometry":{"type":"Polygon","coordinates":[[[13.761719,41.307302],[13.76307,41.305323],[13.763334,41.30457],[13.763024,41.301351],[13.762982,41.300461],[13.763006,41.298551],[13.763273,41.297752],[13.765584,41.293729],[13.765989,41.293221],[13.766095,41.293088],[13.76684,41.292215],[13.767516,41.29185],[13.774595,41.287531],[13.780934,41.281905],[13.785631,41.277118],[13.786571,41.276039],[13.787019,41.27552],[13.787559,41.274895],[13.788246,41.273912],[13.788739,41.27309],[13.789419,41.271562],[13.789034,41.270003],[13.788173,41.267545],[13.787398,41.266825],[13.786656,41.266302],[13.782212,41.25942],[13.775049,41.246833],[13.773747,41.242659],[13.773277,41.242545],[13.771976,41.242106],[13.771801,41.241944],[13.771632,41.241789],[13.771258,41.241359],[13.771015,41.240906],[13.770829,41.240103],[13.770542,41.238159],[13.770443,41.237258],[13.770455,41.237089],[13.770383,41.236479],[13.770276,41.235791],[13.770172,41.235453],[13.770094,41.235198],[13.770084,41.235167],[13.770039,41.235021],[13.765807,41.227936],[13.764763,41.226246],[13.764282,41.225484],[13.764231,41.225404],[13.763968,41.225028],[13.763639,41.22456],[13.762113,41.222597],[13.755385,41.227072],[13.752948,41.228812],[13.752397,41.229194],[13.750598,41.230416],[13.747825,41.232242],[13.746022,41.233376],[13.738118,41.238096],[13.722466,41.24667],[13.718446,41.248693],[13.714931,41.250291],[13.70735,41.253294],[13.705959,41.253708],[13.704057,41.253595],[13.702507,41.253308],[13.700695,41.252777],[13.692819,41.249079],[13.689017,41.246488],[13.687142,41.248887],[13.686769,41.249623],[13.686231,41.262182],[13.686394,41.262995],[13.686868,41.263795],[13.689161,41.267362],[13.689719,41.268077],[13.690634,41.268864],[13.693808,41.270791],[13.694624,41.271123],[13.696854,41.27168],[13.706385,41.274734],[13.706845,41.275007],[13.707101,41.275362],[13.708035,41.276993],[13.711107,41.278074],[13.716897,41.279326],[13.718019,41.279357],[13.721085,41.280726],[13.722405,41.281603],[13.723403,41.282454],[13.724283,41.283264],[13.725067,41.2841],[13.729125,41.289122],[13.732446,41.293435],[13.733091,41.294583],[13.737064,41.300421],[13.748669,41.308787],[13.753985,41.311687],[13.754911,41.311604],[13.755762,41.311524],[13.756757,41.311239],[13.757783,41.310715],[13.758754,41.309946],[13.761719,41.307302]]]}},{"type":"Feature","id":"059015","properties":{"istat":"059015","name":"Monte San Biagio","province":"LT","label":[41.36598,13.314795]},"geometry":{"type":"Polygon","coordinates":[[[13.341945,41.405854],[13.349186,41.404571],[13.360226,41.397801],[13.359279,41.397129],[13.358587,41.396615],[13.357098,41.395406],[13.356619,41.39492],[13.355993,41.394147],[13.355512,41.393247],[13.355397,41.392653],[13.354666,41.387014],[13.354773,41.38604],[13.355049,41.385098],[13.356335,41.381065],[13.358134,41.379407],[13.359095,41.378781],[13.360327,41.378239],[13.367726,41.370209],[13.367622,41.350044],[13.365693,41.340402],[13.366299,41.338107],[13.367228,41.334225],[13.367217,41.333228],[13.367008,41.332468],[13.366384,41.3312],[13.365898,41.330534],[13.363014,41.326641],[13.362312,41.325799],[13.360951,41.324329],[13.360506,41.323954],[13.359975,41.324015],[13.359905,41.324023],[13.359859,41.324028],[13.347109,41.327786],[13.34389,41.333531],[13.342728,41.330512],[13.343583,41.328362],[13.34301,41.327301],[13.34191,41.326077],[13.341369,41.325853],[13.333147,41.325624],[13.33154,41.326477],[13.330491,41.327177],[13.324021,41.328892],[13.313839,41.32563],[13.313287,41.325445],[13.313204,41.326244],[13.310417,41.330086],[13.309725,41.330931],[13.309675,41.330991],[13.308638,41.331805],[13.307504,41.33268],[13.306657,41.333103],[13.29729,41.329678],[13.292294,41.327586],[13.286882,41.330277],[13.27057,41.352892],[13.270381,41.353745],[13.26976,41.356384],[13.269357,41.357182],[13.268677,41.358027],[13.267918,41.358699],[13.267085,41.359423],[13.265361,41.360915],[13.260733,41.364598],[13.263038,41.367362],[13.263261,41.367633],[13.263617,41.368066],[13.264049,41.36891],[13.26404,41.369237],[13.264028,41.369676],[13.262901,41.373441],[13.262303,41.374269],[13.25996,41.380078],[13.258254,41.387593],[13.257072,41.393737],[13.256975,41.394709],[13.257385,41.395314],[13.257407,41.395346],[13.257436,41.395387],[13.258124,41.396057],[13.259074,41.39672],[13.260143,41.397455],[13.261077,41.397821],[13.262547,41.39787],[13.264095,41.397687],[13.264493,41.39764],[13.266738,41.397322],[13.268556,41.396881],[13.279473,41.396119],[13.292103,41.39707],[13.299368,41.401485],[13.299981,41.401845],[13.30107,41.402282],[13.30213,41.402481],[13.303407,41.402608],[13.303558,41.402612],[13.304757,41.402643],[13.306501,41.402556],[13.311846,41.401846],[13.313299,41.402129],[13.31787,41.403466],[13.320427,41.405485],[13.320992,41.406288],[13.322109,41.406611],[13.323035,41.406692],[13.323685,41.406749],[13.327753,41.406727],[13.33655,41.406566],[13.340844,41.406107],[13.341945,41.405854]]]}},{"type":"Feature","id":"059016","properties":{"istat":"059016","name":"Norma","province":"LT","label":[41.605986,12.97531]},"geometry":{"type":"Polygon","coordinates":[[[13.019363,41.610597],[13.020918,41.609948],[13.021543,41.609543],[13.02526,41.600998],[13.02528,41.599944],[13.025097,41.59966],[13.022427,41.597715],[13.016054,41.593266],[13.011176,41.583689],[13.00831,41.580953],[13.00775,41.580846],[13.007245,41.580833],[13.006719,41.580819],[13.00099,41.581055],[12.996053,41.581422],[12.986751,41.575301],[12.982875,41.572464],[12.978274,41.57053],[12.977075,41.570918],[12.97516,41.572322],[12.974124,41.573231],[12.961599,41.578863],[12.957073,41.580731],[12.95535,41.583618],[12.945389,41.588665],[12.931373,41.601222],[12.930655,41.601657],[12.929974,41.60207],[12.929792,41.602273],[12.929368,41.602744],[12.928571,41.603654],[12.927988,41.60462],[12.927527,41.605509],[12.927532,41.606463],[12.92865,41.606799],[12.929966,41.607357],[12.930142,41.607432],[12.932471,41.608437],[12.932712,41.608542],[12.935412,41.610029],[12.939629,41.612482],[12.940919,41.613433],[12.950029,41.614351],[12.958074,41.613271],[12.966791,41.613136],[12.972757,41.618806],[12.975483,41.62266],[12.97661,41.624904],[12.982479,41.635449],[12.987072,41.640803],[12.988764,41.638651],[12.996934,41.629168],[12.998501,41.626665],[12.999799,41.625048],[13.004616,41.619869],[13.011254,41.614788],[13.015792,41.611996],[13.019363,41.610597]]]}},{"type":"Feature","id":"059017","properties":{"istat":"059017","name":"Pontinia","province":"LT","label":[41.394144,13.122342]},"geometry":{"type":"Polygon","coordinates":[[[13.144505,41.442152],[13.145284,41.441291],[13.14986,41.436502],[13.151368,41.435659],[13.15731,41.432964],[13.16282,41.430621],[13.17115,41.42723],[13.172491,41.426758],[13.173747,41.426352],[13.174895,41.426023],[13.176319,41.425575],[13.177491,41.425145],[13.181559,41.423563],[13.182392,41.423165],[13.18713,41.41999],[13.189929,41.41806],[13.189786,41.414013],[13.190952,41.412278],[13.191518,41.411258],[13.192749,41.408732],[13.192862,41.408498],[13.193016,41.408177],[13.193151,41.407158],[13.192945,41.406447],[13.192712,41.405739],[13.19232,41.404786],[13.191489,41.402821],[13.191403,41.40262],[13.191305,41.40239],[13.190283,41.399901],[13.18817,41.394429],[13.187954,41.393858],[13.186982,41.391292],[13.186839,41.390916],[13.186721,41.390605],[13.186297,41.389477],[13.185094,41.386279],[13.183811,41.382594],[13.182466,41.378437],[13.175641,41.372792],[13.173833,41.371197],[13.173651,41.371008],[13.172961,41.370292],[13.171223,41.367865],[13.170338,41.365781],[13.169939,41.364657],[13.169923,41.364452],[13.169858,41.363638],[13.166157,41.359583],[13.154528,41.357449],[13.151099,41.356105],[13.147104,41.352845],[13.145984,41.349207],[13.140453,41.345143],[13.134079,41.340477],[13.127851,41.336145],[13.123181,41.333424],[13.11684,41.328694],[13.11475,41.332389],[13.108571,41.342083],[13.102388,41.352339],[13.09557,41.364442],[13.094697,41.366886],[13.093955,41.36775],[13.089808,41.372157],[13.088442,41.373502],[13.084086,41.377682],[13.083643,41.378099],[13.083041,41.378665],[13.081959,41.379257],[13.079343,41.380367],[13.058883,41.391956],[13.052641,41.397994],[13.051785,41.398942],[13.049524,41.400598],[13.042463,41.405128],[13.040802,41.405772],[13.038931,41.406374],[13.037145,41.406891],[13.035817,41.407276],[13.035124,41.407475],[13.02624,41.411074],[13.025196,41.411588],[13.01914,41.415159],[13.011231,41.419865],[13.004819,41.423331],[13.000071,41.425617],[12.999841,41.42585],[12.999354,41.426344],[12.998977,41.426928],[12.998889,41.427067],[12.999639,41.427861],[13.000575,41.428705],[13.00195,41.429909],[13.017814,41.441021],[13.022832,41.444502],[13.024697,41.445768],[13.032983,41.439715],[13.037168,41.43648],[13.049366,41.427078],[13.053008,41.429405],[13.067255,41.439895],[13.081261,41.450094],[13.082307,41.450759],[13.082886,41.451004],[13.083507,41.450672],[13.086164,41.448673],[13.092551,41.443538],[13.094414,41.442035],[13.094863,41.442249],[13.096716,41.443533],[13.101375,41.446771],[13.109573,41.45256],[13.114767,41.456377],[13.116059,41.457208],[13.118282,41.458633],[13.120554,41.459965],[13.126402,41.454784],[13.144505,41.442152]]]}},{"type":"Feature","id":"059018","properties":{"istat":"059018","name":"Ponza","province":"LT","label":[40.906578,12.953082]},"geometry":{"type":"MultiPolygon","coordinates":[[[[13.104286,40.838707],[13.104143,40.838698],[13.103969,40.838736],[13.103795,40.838814],[13.103612,40.838956],[13.103519,40.83909],[13.103461,40.839326],[13.103535,40.839382],[13.104058,40.839206],[13.104149,40.83914],[13.104188,40.839089],[13.104284,40.838784],[13.104286,40.838707]]],[[[12.96637,40.883047],[12.965864,40.882978],[12.96573,40.883059],[12.965655,40.883272],[12.965751,40.883621],[12.965992,40.88366],[12.966396,40.883694],[12.966602,40.883563],[12.966552,40.883355],[12.96637,40.883047]]],[[[12.965463,40.883968],[12.965325,40.883946],[12.964525,40.884446],[12.964674,40.885224],[12.964865,40.88538],[12.965044,40.885374],[12.965466,40.885356],[12.965631,40.885179],[12.965819,40.884962],[12.965857,40.884551],[12.965859,40.884283],[12.965768,40.884062],[12.965648,40.883998],[12.965463,40.883968]]],[[[12.945818,40.912174],[12.945395,40.912147],[12.945218,40.912188],[12.945108,40.912283],[12.945108,40.912392],[12.945504,40.912774],[12.945763,40.912829],[12.946091,40.912856],[12.946337,40.912815],[12.946855,40.91257],[12.946923,40.912447],[12.946841,40.91231],[12.945995,40.912188],[12.945818,40.912174]]],[[[12.944611,40.912646],[12.944407,40.912646],[12.943821,40.912735],[12.943069,40.912888],[12.943107,40.913079],[12.943209,40.91327],[12.943662,40.913828],[12.943743,40.913882],[12.944086,40.914062],[12.944185,40.914081],[12.94484,40.913207],[12.944802,40.912786],[12.944687,40.912659],[12.944611,40.912646]]],[[[12.85112,40.920372],[12.850964,40.920287],[12.850819,40.920454],[12.850547,40.920963],[12.850493,40.921086],[12.85052,40.921274],[12.850617,40.921347],[12.850819,40.921332],[12.85104,40.921203],[12.851116,40.921155],[12.851155,40.921068],[12.851229,40.920679],[12.851179,40.920487],[12.85112,40.920372]]],[[[12.847658,40.921937],[12.847682,40.921801],[12.847608,40.921723],[12.846953,40.921245],[12.846834,40.921213],[12.846676,40.921205],[12.84654,40.9212],[12.846377,40.92157],[12.84646,40.921796],[12.846558,40.921983],[12.84668,40.921965],[12.847048,40.921985],[12.847288,40.922017],[12.847658,40.921937]]],[[[12.848698,40.919876],[12.848526,40.919828],[12.848352,40.919906],[12.848213,40.920113],[12.84812,40.920283],[12.848072,40.920492],[12.847871,40.921772],[12.848511,40.922255],[12.848652,40.922336],[12.848802,40.922376],[12.848884,40.922396],[12.849022,40.922346],[12.849342,40.922002],[12.849501,40.921952],[12.849761,40.921696],[12.849824,40.9215],[12.848772,40.919982],[12.848698,40.919876]]],[[[12.848135,40.924866],[12.848186,40.924432],[12.848218,40.924535],[12.848244,40.924615],[12.848393,40.924713],[12.849449,40.924507],[12.849513,40.923789],[12.849421,40.923414],[12.848773,40.922976],[12.847847,40.922606],[12.847395,40.922599],[12.847078,40.9227],[12.847008,40.922801],[12.846838,40.923086],[12.847261,40.924918],[12.847342,40.925028],[12.847454,40.925114],[12.847588,40.925168],[12.847768,40.925216],[12.84795,40.925217],[12.848086,40.92507],[12.848135,40.924866]]],[[[12.968843,40.922191],[12.964399,40.913352],[12.961932,40.907508],[12.960331,40.898138],[12.964427,40.894319],[12.969245,40.893896],[12.963216,40.885215],[12.960887,40.882986],[12.954032,40.877577],[12.952537,40.878181],[12.948506,40.885373],[12.947666,40.887027],[12.951205,40.889241],[12.95454,40.892494],[12.954811,40.892831],[12.954656,40.89375],[12.954139,40.894929],[12.953529,40.895621],[12.952772,40.896237],[12.95224,40.896364],[12.949126,40.896128],[12.945836,40.89607],[12.942931,40.897214],[12.94258,40.899829],[12.942629,40.901047],[12.943625,40.905648],[12.947462,40.910301],[12.948938,40.917563],[12.94873,40.917682],[12.948305,40.918345],[12.9483,40.91862],[12.948392,40.918734],[12.948921,40.919292],[12.949202,40.91953],[12.954746,40.921834],[12.95766,40.921266],[12.95871,40.920367],[12.96654,40.923405],[12.96709,40.923855],[12.9672,40.923945],[12.968084,40.924712],[12.968723,40.926315],[12.967782,40.927433],[12.966291,40.92826],[12.979254,40.933741],[12.980841,40.934393],[12.984198,40.935569],[12.984973,40.935412],[12.987228,40.935064],[12.993661,40.934724],[12.994001,40.934667],[12.994969,40.933989],[12.995138,40.933545],[12.995244,40.933263],[12.995333,40.933016],[12.995536,40.932452],[12.992253,40.930045],[12.990486,40.929265],[12.98907,40.929205],[12.984749,40.928562],[12.980276,40.927519],[12.979217,40.927223],[12.978691,40.927073],[12.977961,40.926865],[12.977057,40.926455],[12.968843,40.922191]]],[[[13.00029,40.932725],[12.999707,40.932704],[12.997274,40.933374],[12.996918,40.933602],[12.99686,40.933771],[12.996863,40.933815],[12.996874,40.933995],[12.997499,40.935011],[12.998175,40.935621],[13.000602,40.936747],[13.001004,40.936914],[13.001333,40.937037],[13.002428,40.937427],[13.003247,40.937556],[13.003442,40.937525],[13.003541,40.93751],[13.003638,40.937097],[13.003736,40.935855],[13.003674,40.935583],[13.003534,40.935146],[13.003166,40.93461],[13.003044,40.934465],[13.0029,40.934299],[13.002294,40.933829],[13.001903,40.93355],[13.001555,40.933321],[13.001526,40.933304],[13.000775,40.932892],[13.00029,40.932725]]],[[[12.852735,40.942426],[12.852242,40.942127],[12.852023,40.942206],[12.851801,40.942479],[12.851911,40.942642],[12.852576,40.943494],[12.853254,40.942913],[12.852913,40.94255],[12.852735,40.942426]]],[[[12.850483,40.942519],[12.850318,40.942525],[12.850099,40.942545],[12.84994,40.942587],[12.849864,40.942612],[12.849789,40.942646],[12.849765,40.942723],[12.849669,40.943586],[12.849802,40.943722],[12.850116,40.943846],[12.850206,40.943866],[12.85062,40.94387],[12.850658,40.943869],[12.850711,40.94384],[12.850765,40.943743],[12.850796,40.943657],[12.850797,40.943585],[12.850712,40.942845],[12.850697,40.942746],[12.850624,40.942654],[12.850483,40.942519]]],[[[12.859808,40.944966],[12.859873,40.945058],[12.860076,40.94522],[12.860219,40.945281],[12.8603,40.945058],[12.860229,40.944977],[12.860158,40.944916],[12.859995,40.944875],[12.859883,40.944875],[12.859808,40.944966]]],[[[12.850235,40.947737],[12.849806,40.94773],[12.849524,40.947822],[12.849463,40.947991],[12.849693,40.948067],[12.849924,40.948083],[12.850385,40.948052],[12.850786,40.947992],[12.850732,40.947911],[12.850611,40.947831],[12.85039,40.94775],[12.850235,40.947737]]],[[[12.859808,40.944966],[12.860686,40.939989],[12.861545,40.929226],[12.853011,40.92613],[12.850957,40.92664],[12.850207,40.928741],[12.851353,40.929756],[12.854541,40.933477],[12.856327,40.942451],[12.855726,40.945351],[12.854712,40.946628],[12.854246,40.946828],[12.853841,40.947612],[12.853783,40.947726],[12.853834,40.94817],[12.853858,40.948363],[12.853884,40.948533],[12.854241,40.949605],[12.854464,40.94959],[12.854819,40.949533],[12.858765,40.948176],[12.859782,40.945081],[12.859808,40.944966]]],[[[13.057032,40.964518],[13.056624,40.964515],[13.050575,40.964887],[13.048437,40.965055],[13.046323,40.966269],[13.046287,40.966299],[13.046239,40.966339],[13.04603,40.966558],[13.045761,40.967085],[13.045279,40.968399],[13.045973,40.969865],[13.046069,40.969956],[13.046594,40.970136],[13.046774,40.970197],[13.050923,40.971096],[13.053402,40.973224],[13.054917,40.973855],[13.057656,40.973488],[13.057815,40.973446],[13.058228,40.973301],[13.058587,40.973099],[13.058787,40.972984],[13.059262,40.972679],[13.059799,40.972323],[13.061023,40.971307],[13.061493,40.97089],[13.062389,40.970079],[13.062848,40.969473],[13.063019,40.967846],[13.062858,40.966213],[13.062747,40.966068],[13.062367,40.96583],[13.060971,40.96496],[13.060218,40.96482],[13.057032,40.964518]]]]}},{"type":"Feature","id":"059019","properties":{"istat":"059019","name":"Priverno","province":"LT","label":[41.465279,13.154969]},"geometry":{"type":"Polygon","coordinates":[[[13.22508,41.501157],[13.227202,41.492371],[13.221524,41.491923],[13.215269,41.489803],[13.202182,41.485245],[13.201428,41.484785],[13.194723,41.478384],[13.193347,41.469409],[13.195977,41.462812],[13.202131,41.456783],[13.203754,41.454793],[13.205029,41.446803],[13.2045,41.444489],[13.203951,41.44244],[13.202131,41.44014],[13.20446,41.436987],[13.204514,41.436783],[13.204317,41.436542],[13.200219,41.435004],[13.199831,41.434871],[13.199744,41.434841],[13.199472,41.434757],[13.199379,41.43473],[13.199198,41.434681],[13.19685,41.43433],[13.19168,41.424421],[13.189929,41.41806],[13.18713,41.41999],[13.182392,41.423165],[13.181559,41.423563],[13.177491,41.425145],[13.176319,41.425575],[13.174895,41.426023],[13.173747,41.426352],[13.172491,41.426758],[13.17115,41.42723],[13.16282,41.430621],[13.15731,41.432964],[13.151368,41.435659],[13.14986,41.436502],[13.145284,41.441291],[13.144505,41.442152],[13.126402,41.454784],[13.120554,41.459965],[13.112342,41.467746],[13.112002,41.468262],[13.111741,41.468659],[13.111616,41.469645],[13.111819,41.470134],[13.111884,41.470289],[13.11344,41.473231],[13.114556,41.474812],[13.11632,41.477162],[13.118039,41.479439],[13.118933,41.480009],[13.11985,41.481407],[13.119973,41.482705],[13.119238,41.48599],[13.118894,41.487142],[13.115604,41.488236],[13.108847,41.492377],[13.108331,41.492828],[13.108459,41.493373],[13.109868,41.494763],[13.110733,41.495507],[13.111663,41.496063],[13.113346,41.496291],[13.114997,41.496362],[13.11749,41.496717],[13.118426,41.497104],[13.119291,41.497811],[13.119934,41.498378],[13.120677,41.499238],[13.120824,41.499953],[13.122908,41.499527],[13.128882,41.499245],[13.129985,41.499264],[13.131448,41.499612],[13.13424,41.5007],[13.140614,41.503205],[13.142962,41.504609],[13.146695,41.506477],[13.147016,41.506597],[13.147382,41.506733],[13.148295,41.507072],[13.155996,41.507636],[13.16336,41.507792],[13.170222,41.506215],[13.183055,41.503204],[13.185282,41.503691],[13.187805,41.505038],[13.189361,41.505711],[13.190655,41.506257],[13.192967,41.506962],[13.193515,41.507059],[13.207515,41.506471],[13.209896,41.505562],[13.211927,41.505304],[13.213523,41.505223],[13.215574,41.505379],[13.216001,41.505521],[13.219536,41.508203],[13.221912,41.510015],[13.223649,41.511528],[13.223787,41.511649],[13.226038,41.516987],[13.225823,41.511284],[13.22508,41.501157]]]}},{"type":"Feature","id":"059020","properties":{"istat":"059020","name":"Prossedi","province":"LT","label":[41.494743,13.255265]},"geometry":{"type":"Polygon","coordinates":[[[13.242804,41.539105],[13.246609,41.538514],[13.25155,41.537061],[13.252723,41.53668],[13.253521,41.536314],[13.25384,41.536166],[13.25401,41.536086],[13.254801,41.53571],[13.254958,41.535634],[13.257687,41.534231],[13.259872,41.532989],[13.263016,41.531026],[13.264032,41.530241],[13.27095,41.523906],[13.27138,41.523347],[13.271856,41.522729],[13.272441,41.521856],[13.273131,41.520671],[13.273183,41.520582],[13.27527,41.515554],[13.277604,41.509801],[13.27908,41.50831],[13.278752,41.506224],[13.279182,41.500441],[13.279215,41.50007],[13.279271,41.499775],[13.279595,41.499313],[13.281532,41.497115],[13.288756,41.489881],[13.288492,41.487177],[13.288483,41.487082],[13.288457,41.486692],[13.288774,41.486018],[13.289603,41.485483],[13.290925,41.484871],[13.293769,41.482383],[13.294372,41.481743],[13.294814,41.480876],[13.2962,41.477348],[13.296422,41.476647],[13.297449,41.471728],[13.29741,41.469279],[13.293867,41.466012],[13.288411,41.463894],[13.27818,41.460004],[13.273053,41.456467],[13.26816,41.453177],[13.266658,41.452508],[13.265563,41.452043],[13.262818,41.4528],[13.261744,41.453191],[13.261653,41.453226],[13.260899,41.453528],[13.260702,41.453608],[13.259574,41.454127],[13.258828,41.454584],[13.258528,41.454769],[13.257401,41.455724],[13.256426,41.456801],[13.255549,41.457833],[13.254944,41.458618],[13.254903,41.458671],[13.254635,41.459082],[13.25403,41.460009],[13.25333,41.461194],[13.253277,41.461284],[13.252972,41.462367],[13.252473,41.464488],[13.252315,41.465449],[13.252323,41.465965],[13.252333,41.466555],[13.248137,41.473323],[13.242349,41.482458],[13.240146,41.485699],[13.237493,41.489264],[13.236637,41.490313],[13.235806,41.490974],[13.235331,41.491247],[13.235216,41.491314],[13.23477,41.49157],[13.233517,41.4914],[13.233267,41.491288],[13.232807,41.49108],[13.233042,41.490803],[13.233079,41.490759],[13.232588,41.490341],[13.231799,41.490266],[13.229448,41.490308],[13.228561,41.490892],[13.227202,41.492371],[13.22508,41.501157],[13.225823,41.511284],[13.226038,41.516987],[13.227407,41.523045],[13.227575,41.523481],[13.227635,41.524308],[13.227654,41.525419],[13.227464,41.526444],[13.227442,41.526557],[13.226332,41.530821],[13.226238,41.531176],[13.226196,41.531337],[13.225824,41.53273],[13.221737,41.538834],[13.233068,41.539676],[13.242804,41.539105]]]}},{"type":"Feature","id":"059022","properties":{"istat":"059022","name":"Rocca Massima","province":"LT","label":[41.692537,12.923402]},"geometry":{"type":"Polygon","coordinates":[[[12.94274,41.70633],[12.945237,41.702087],[12.946814,41.698396],[12.947801,41.697237],[12.948754,41.696335],[12.949803,41.695849],[12.952116,41.694934],[12.947259,41.689732],[12.942952,41.686486],[12.942719,41.676845],[12.943128,41.674175],[12.939486,41.671534],[12.932941,41.672064],[12.917158,41.673754],[12.915402,41.67385],[12.912134,41.67461],[12.911034,41.674866],[12.910516,41.674987],[12.91039,41.675016],[12.906865,41.675928],[12.899263,41.678082],[12.89697,41.678764],[12.895373,41.679444],[12.890798,41.681656],[12.890835,41.681984],[12.891258,41.683329],[12.891836,41.685137],[12.892196,41.685918],[12.896866,41.688956],[12.899391,41.69014],[12.894018,41.695366],[12.885398,41.698633],[12.880343,41.701848],[12.878756,41.706629],[12.879089,41.708175],[12.880306,41.708819],[12.881964,41.709176],[12.882764,41.709348],[12.892687,41.711335],[12.894146,41.711573],[12.895979,41.711403],[12.900189,41.709806],[12.904245,41.707781],[12.905544,41.707417],[12.906854,41.707257],[12.907027,41.707236],[12.908048,41.707174],[12.908291,41.707162],[12.91351,41.708084],[12.920276,41.70972],[12.924,41.711263],[12.925481,41.711532],[12.927111,41.711715],[12.937794,41.712907],[12.939899,41.710618],[12.94274,41.70633]]]}},{"type":"Feature","id":"059021","properties":{"istat":"059021","name":"Roccagorga","province":"LT","label":[41.526701,13.132121]},"geometry":{"type":"Polygon","coordinates":[[[13.130506,41.549414],[13.132301,41.549119],[13.147074,41.546097],[13.166486,41.535602],[13.167116,41.525836],[13.165101,41.517374],[13.163661,41.511567],[13.16336,41.507792],[13.155996,41.507636],[13.148295,41.507072],[13.147382,41.506733],[13.147016,41.506597],[13.146695,41.506477],[13.142962,41.504609],[13.140614,41.503205],[13.13424,41.5007],[13.131448,41.499612],[13.129985,41.499264],[13.128882,41.499245],[13.122908,41.499527],[13.120824,41.499953],[13.11915,41.503909],[13.119311,41.505419],[13.119056,41.507175],[13.118576,41.508444],[13.11817,41.509238],[13.113032,41.514514],[13.110792,41.515711],[13.109929,41.516147],[13.107621,41.516351],[13.10299,41.518223],[13.098897,41.522939],[13.098407,41.523704],[13.097254,41.526244],[13.097108,41.527158],[13.096881,41.529566],[13.09688,41.529719],[13.096879,41.530095],[13.096879,41.530453],[13.09694,41.531612],[13.097339,41.535029],[13.097833,41.537767],[13.099426,41.539655],[13.101044,41.540894],[13.101651,41.541456],[13.101895,41.541683],[13.102562,41.54273],[13.103595,41.544692],[13.103682,41.545036],[13.105965,41.548948],[13.106356,41.549537],[13.106609,41.549918],[13.107022,41.55054],[13.10831,41.551948],[13.109857,41.553171],[13.110584,41.553433],[13.111223,41.553663],[13.11237,41.553631],[13.112843,41.553618],[13.12202,41.55093],[13.123461,41.550477],[13.124816,41.55005],[13.12542,41.549844],[13.130506,41.549414]]]}},{"type":"Feature","id":"059023","properties":{"istat":"059023","name":"Roccasecca dei Volsci","province":"LT","label":[41.46259,13.224562]},"geometry":{"type":"Polygon","coordinates":[[[13.221524,41.491923],[13.227202,41.492371],[13.228561,41.490892],[13.229448,41.490308],[13.231799,41.490266],[13.232588,41.490341],[13.233079,41.490759],[13.233042,41.490803],[13.232807,41.49108],[13.233267,41.491288],[13.233517,41.4914],[13.23477,41.49157],[13.235216,41.491314],[13.235331,41.491247],[13.235806,41.490974],[13.236637,41.490313],[13.237493,41.489264],[13.240146,41.485699],[13.242349,41.482458],[13.248137,41.473323],[13.252333,41.466555],[13.252323,41.465965],[13.252315,41.465449],[13.252473,41.464488],[13.252972,41.462367],[13.253277,41.461284],[13.25333,41.461194],[13.25403,41.460009],[13.254635,41.459082],[13.254903,41.458671],[13.254944,41.458618],[13.255549,41.457833],[13.256426,41.456801],[13.257401,41.455724],[13.258528,41.454769],[13.258828,41.454584],[13.259574,41.454127],[13.260702,41.453608],[13.260899,41.453528],[13.261653,41.453226],[13.261744,41.453191],[13.262818,41.4528],[13.265563,41.452043],[13.262108,41.447581],[13.261651,41.446774],[13.261303,41.445896],[13.260017,41.439825],[13.256832,41.434918],[13.254682,41.432577],[13.254225,41.432647],[13.25314,41.43293],[13.252365,41.433279],[13.251485,41.433928],[13.24668,41.437703],[13.245088,41.4395],[13.243661,41.441376],[13.243058,41.442402],[13.242757,41.4434],[13.241768,41.44539],[13.241097,41.446182],[13.240952,41.446352],[13.236816,41.449692],[13.233741,41.449639],[13.222101,41.444494],[13.213443,41.440273],[13.207207,41.438553],[13.202131,41.44014],[13.203951,41.44244],[13.2045,41.444489],[13.205029,41.446803],[13.203754,41.454793],[13.202131,41.456783],[13.195977,41.462812],[13.193347,41.469409],[13.194723,41.478384],[13.201428,41.484785],[13.202182,41.485245],[13.215269,41.489803],[13.221524,41.491923]]]}},{"type":"Feature","id":"059024","properties":{"istat":"059024","name":"Sabaudia","province":"LT","label":[41.336241,13.04576]},"geometry":{"type":"Polygon","coordinates":[[[13.079343,41.380367],[13.081959,41.379257],[13.083041,41.378665],[13.083643,41.378099],[13.084086,41.377682],[13.088442,41.373502],[13.089808,41.372157],[13.093955,41.36775],[13.094697,41.366886],[13.09557,41.364442],[13.102388,41.352339],[13.108571,41.342083],[13.11475,41.332389],[13.11684,41.328694],[13.114676,41.327087],[13.099152,41.314847],[13.076878,41.297553],[13.076106,41.297018],[13.074022,41.295565],[13.07297,41.29481],[13.065237,41.288997],[13.061864,41.286329],[13.060935,41.285421],[13.060865,41.285101],[13.061114,41.284712],[13.061236,41.284528],[13.061997,41.283429],[13.062735,41.28275],[13.063021,41.282513],[13.063065,41.282478],[13.063416,41.281889],[13.06506,41.278404],[13.065593,41.276871],[13.065751,41.276412],[13.06637,41.274594],[13.066647,41.273778],[13.066843,41.273202],[13.067203,41.272143],[13.067291,41.266667],[13.067294,41.266446],[13.067244,41.264685],[13.066759,41.262901],[13.066213,41.261588],[13.065642,41.26028],[13.068621,41.250364],[13.07035,41.246345],[13.070865,41.245093],[13.070962,41.244628],[13.070956,41.244392],[13.070914,41.24435],[13.070643,41.244106],[13.070066,41.243847],[13.065213,41.243423],[13.062284,41.243236],[13.059121,41.243086],[13.05851,41.243166],[13.057683,41.24333],[13.05707,41.243549],[13.057032,41.243564],[13.057001,41.243579],[13.056122,41.244034],[13.055365,41.244578],[13.054507,41.245347],[13.053283,41.245975],[13.052377,41.246358],[13.050737,41.246943],[13.050444,41.247028],[13.049377,41.247333],[13.047705,41.247775],[13.045088,41.248277],[13.042606,41.248274],[13.039607,41.248249],[13.035666,41.247359],[13.035894,41.247484],[13.03508,41.249669],[13.032188,41.257166],[13.028536,41.265126],[13.025709,41.270648],[13.023289,41.275225],[13.019534,41.28206],[13.014719,41.290117],[13.013455,41.292203],[13.012416,41.293856],[13.010667,41.296618],[13.009727,41.298027],[13.004632,41.305449],[13.002709,41.308175],[12.998573,41.313721],[12.997523,41.314996],[12.985371,41.329536],[12.983678,41.331446],[12.975647,41.340093],[12.97167,41.344196],[12.970341,41.345533],[12.964981,41.350253],[12.96407,41.350975],[12.947613,41.363583],[12.944776,41.365556],[12.930665,41.374681],[12.919744,41.38129],[12.916826,41.382778],[12.915519,41.383309],[12.915951,41.383864],[12.917166,41.384915],[12.917945,41.385512],[12.918633,41.38602],[12.919284,41.386249],[12.920414,41.386431],[12.921762,41.386552],[12.925039,41.386629],[12.926841,41.386671],[12.936904,41.38731],[12.947963,41.388122],[12.965005,41.390065],[12.966792,41.390296],[12.967216,41.390357],[12.96853,41.390543],[12.969991,41.390911],[12.971044,41.391631],[12.984549,41.402045],[12.991524,41.407472],[12.992371,41.408289],[12.992428,41.4084],[12.99306,41.409634],[12.993578,41.410669],[12.994066,41.411922],[12.996023,41.416802],[12.999327,41.424055],[13.000071,41.425617],[13.004819,41.423331],[13.011231,41.419865],[13.01914,41.415159],[13.025196,41.411588],[13.02624,41.411074],[13.035124,41.407475],[13.035817,41.407276],[13.037145,41.406891],[13.038931,41.406374],[13.040802,41.405772],[13.042463,41.405128],[13.049524,41.400598],[13.051785,41.398942],[13.052641,41.397994],[13.058883,41.391956],[13.079343,41.380367]]]}},{"type":"Feature","id":"059025","properties":{"istat":"059025","name":"San Felice Circeo","province":"LT","label":[41.252589,13.097233]},"geometry":{"type":"Polygon","coordinates":[[[13.114537,41.281781],[13.115061,41.280742],[13.115474,41.279924],[13.11785,41.275728],[13.118963,41.273973],[13.121864,41.269425],[13.122562,41.268651],[13.122888,41.26829],[13.127205,41.264677],[13.135253,41.258318],[13.131162,41.254952],[13.129621,41.254055],[13.123404,41.251124],[13.121076,41.250216],[13.119104,41.249623],[13.117785,41.249017],[13.116767,41.248493],[13.115736,41.24792],[13.106667,41.241989],[13.103562,41.23866],[13.095033,41.227469],[13.093645,41.225285],[13.083872,41.223806],[13.072948,41.222545],[13.05729,41.224188],[13.046288,41.226633],[13.045369,41.226956],[13.043858,41.227782],[13.041446,41.23001],[13.033638,41.240983],[13.03338,41.244533],[13.034265,41.247321],[13.035353,41.247358],[13.035666,41.247359],[13.039607,41.248249],[13.042606,41.248274],[13.045088,41.248277],[13.047705,41.247775],[13.049377,41.247333],[13.050444,41.247028],[13.050737,41.246943],[13.052377,41.246358],[13.053283,41.245975],[13.054507,41.245347],[13.055365,41.244578],[13.056122,41.244034],[13.057001,41.243579],[13.057032,41.243564],[13.05707,41.243549],[13.057683,41.24333],[13.05851,41.243166],[13.059121,41.243086],[13.062284,41.243236],[13.065213,41.243423],[13.070066,41.243847],[13.070643,41.244106],[13.070914,41.24435],[13.070956,41.244392],[13.070962,41.244628],[13.070865,41.245093],[13.07035,41.246345],[13.068621,41.250364],[13.065642,41.26028],[13.066213,41.261588],[13.066759,41.262901],[13.067244,41.264685],[13.067294,41.266446],[13.067291,41.266667],[13.067203,41.272143],[13.066843,41.273202],[13.066647,41.273778],[13.06637,41.274594],[13.065751,41.276412],[13.065593,41.276871],[13.06506,41.278404],[13.063416,41.281889],[13.063065,41.282478],[13.081954,41.283677],[13.107652,41.285318],[13.108415,41.285345],[13.109132,41.285351],[13.11034,41.285281],[13.111513,41.285153],[13.112337,41.284755],[13.112582,41.284525],[13.114258,41.282336],[13.114537,41.281781]]]}},{"type":"Feature","id":"059026","properties":{"istat":"059026","name":"Santi Cosma e Damiano","province":"LT","label":[41.28147,13.804833]},"geometry":{"type":"Polygon","coordinates":[[[13.820418,41.319907],[13.820663,41.31901],[13.820579,41.316548],[13.820147,41.315101],[13.819903,41.314535],[13.819166,41.313913],[13.817854,41.313041],[13.817486,41.312805],[13.818637,41.302148],[13.819207,41.29771],[13.820967,41.291797],[13.824988,41.287308],[13.827746,41.283433],[13.82843,41.281034],[13.827571,41.277456],[13.828713,41.269729],[13.830742,41.266406],[13.832395,41.266751],[13.834016,41.26688],[13.834302,41.266746],[13.834544,41.266632],[13.834931,41.26645],[13.838486,41.263892],[13.839992,41.262368],[13.838293,41.259304],[13.837546,41.259242],[13.837208,41.259215],[13.835557,41.26018],[13.83362,41.255026],[13.826594,41.251226],[13.815044,41.244547],[13.811026,41.246772],[13.804857,41.2469],[13.794864,41.245157],[13.788215,41.242036],[13.778269,41.243481],[13.773747,41.242659],[13.775049,41.246833],[13.782212,41.25942],[13.786656,41.266302],[13.787398,41.266825],[13.788173,41.267545],[13.789034,41.270003],[13.789419,41.271562],[13.788739,41.27309],[13.788246,41.273912],[13.787559,41.274895],[13.787019,41.27552],[13.786571,41.276039],[13.785631,41.277118],[13.780934,41.281905],[13.774595,41.287531],[13.767516,41.29185],[13.76684,41.292215],[13.766095,41.293088],[13.765989,41.293221],[13.765584,41.293729],[13.763273,41.297752],[13.763006,41.298551],[13.762982,41.300461],[13.763024,41.301351],[13.766005,41.302302],[13.776963,41.307027],[13.782366,41.308888],[13.791478,41.310075],[13.793709,41.312449],[13.796535,41.317976],[13.802061,41.3196],[13.809635,41.319652],[13.814837,41.320073],[13.819816,41.321471],[13.820418,41.319907]]]}},{"type":"Feature","id":"059027","properties":{"istat":"059027","name":"Sermoneta","province":"LT","label":[41.532735,12.982594]},"geometry":{"type":"Polygon","coordinates":[[[12.974124,41.573231],[12.97516,41.572322],[12.977075,41.570918],[12.978274,41.57053],[12.982875,41.572464],[12.988068,41.570362],[12.997084,41.563808],[13.001704,41.56136],[13.003002,41.560887],[13.004793,41.56036],[13.007038,41.55994],[13.007929,41.559414],[13.009971,41.557316],[13.011655,41.555236],[13.012363,41.554013],[13.015352,41.548768],[13.019438,41.537877],[13.01954,41.537297],[13.018709,41.536633],[13.00115,41.527233],[12.999082,41.526437],[12.993082,41.518365],[12.991461,41.515743],[12.991256,41.513873],[12.991178,41.513579],[12.991019,41.512976],[12.989092,41.510603],[12.987202,41.50857],[12.983866,41.506781],[12.98051,41.505299],[12.979825,41.504963],[12.979606,41.504331],[12.97955,41.503797],[12.979391,41.501597],[12.979351,41.500977],[12.979645,41.496892],[12.979852,41.495642],[12.980125,41.494514],[12.980852,41.493897],[12.982036,41.49241],[12.983024,41.491088],[12.983528,41.490279],[12.983869,41.489731],[12.983909,41.488419],[12.983376,41.487843],[12.982817,41.487247],[12.980571,41.485604],[12.978836,41.484376],[12.977017,41.483165],[12.969742,41.488729],[12.953202,41.501314],[12.953887,41.50684],[12.95456,41.507524],[12.956058,41.509435],[12.956642,41.510284],[12.956795,41.511521],[12.956566,41.512695],[12.956252,41.513913],[12.955644,41.514965],[12.953529,41.518216],[12.955404,41.529795],[12.952117,41.535675],[12.947289,41.537674],[12.94173,41.539981],[12.930248,41.544803],[12.922142,41.548211],[12.922425,41.548742],[12.922347,41.549651],[12.921838,41.55259],[12.921339,41.553808],[12.920667,41.554543],[12.918995,41.555478],[12.914755,41.557652],[12.915583,41.563163],[12.925123,41.571963],[12.927275,41.573132],[12.936308,41.57737],[12.937148,41.577747],[12.937717,41.577952],[12.937778,41.577956],[12.938099,41.577978],[12.938519,41.578006],[12.94056,41.577958],[12.940891,41.577913],[12.941296,41.577857],[12.94678,41.57471],[12.948979,41.57341],[12.951228,41.572504],[12.953924,41.571434],[12.954657,41.571238],[12.956049,41.572113],[12.95623,41.572282],[12.956358,41.572453],[12.956449,41.572662],[12.956755,41.57357],[12.956705,41.574116],[12.956469,41.574773],[12.956206,41.575854],[12.956769,41.579697],[12.956879,41.580368],[12.957073,41.580731],[12.961599,41.578863],[12.974124,41.573231]]]}},{"type":"Feature","id":"059028","properties":{"istat":"059028","name":"Sezze","province":"LT","label":[41.494205,13.044896]},"geometry":{"type":"Polygon","coordinates":[[[13.095641,41.554233],[13.097425,41.552706],[13.103119,41.545785],[13.103682,41.545036],[13.103595,41.544692],[13.102562,41.54273],[13.101895,41.541683],[13.101651,41.541456],[13.101044,41.540894],[13.099426,41.539655],[13.097833,41.537767],[13.097339,41.535029],[13.09694,41.531612],[13.096879,41.530453],[13.096879,41.530095],[13.09688,41.529719],[13.096881,41.529566],[13.097108,41.527158],[13.097254,41.526244],[13.098407,41.523704],[13.098897,41.522939],[13.10299,41.518223],[13.107621,41.516351],[13.109929,41.516147],[13.110792,41.515711],[13.113032,41.514514],[13.11817,41.509238],[13.118576,41.508444],[13.119056,41.507175],[13.119311,41.505419],[13.11915,41.503909],[13.120824,41.499953],[13.120677,41.499238],[13.119934,41.498378],[13.119291,41.497811],[13.118426,41.497104],[13.11749,41.496717],[13.114997,41.496362],[13.113346,41.496291],[13.111663,41.496063],[13.110733,41.495507],[13.109868,41.494763],[13.108459,41.493373],[13.108331,41.492828],[13.108847,41.492377],[13.115604,41.488236],[13.118894,41.487142],[13.119238,41.48599],[13.119973,41.482705],[13.11985,41.481407],[13.118933,41.480009],[13.118039,41.479439],[13.11632,41.477162],[13.114556,41.474812],[13.11344,41.473231],[13.111884,41.470289],[13.111819,41.470134],[13.111616,41.469645],[13.111741,41.468659],[13.112002,41.468262],[13.112342,41.467746],[13.120554,41.459965],[13.118282,41.458633],[13.116059,41.457208],[13.114767,41.456377],[13.109573,41.45256],[13.101375,41.446771],[13.096716,41.443533],[13.094863,41.442249],[13.094414,41.442035],[13.092551,41.443538],[13.086164,41.448673],[13.083507,41.450672],[13.082886,41.451004],[13.082307,41.450759],[13.081261,41.450094],[13.067255,41.439895],[13.053008,41.429405],[13.049366,41.427078],[13.037168,41.43648],[13.032983,41.439715],[13.024697,41.445768],[13.024524,41.445958],[13.023966,41.446565],[13.02307,41.447324],[13.016864,41.452179],[13.011653,41.456181],[13.010812,41.456807],[13.009192,41.458012],[13.007964,41.458968],[13.00669,41.459959],[13.002317,41.463373],[12.991009,41.47222],[12.977017,41.483165],[12.978836,41.484376],[12.980571,41.485604],[12.982817,41.487247],[12.983376,41.487843],[12.983909,41.488419],[12.983869,41.489731],[12.983528,41.490279],[12.983024,41.491088],[12.982036,41.49241],[12.980852,41.493897],[12.980125,41.494514],[12.979852,41.495642],[12.979645,41.496892],[12.979351,41.500977],[12.979391,41.501597],[12.97955,41.503797],[12.979606,41.504331],[12.979825,41.504963],[12.98051,41.505299],[12.983866,41.506781],[12.987202,41.50857],[12.989092,41.510603],[12.991019,41.512976],[12.991178,41.513579],[12.991256,41.513873],[12.991461,41.515743],[12.99798,41.511865],[13.007285,41.515511],[13.013638,41.513534],[13.015014,41.512837],[13.016277,41.51228],[13.021218,41.510549],[13.022297,41.511322],[13.028303,41.51601],[13.034991,41.52356],[13.041098,41.529323],[13.044131,41.530801],[13.044171,41.530819],[13.046039,41.5315],[13.047671,41.531807],[13.051232,41.532894],[13.056269,41.535024],[13.058624,41.536332],[13.059993,41.537905],[13.064613,41.543297],[13.071487,41.550419],[13.07713,41.555603],[13.077436,41.555975],[13.079083,41.558813],[13.080181,41.560918],[13.085169,41.559698],[13.095641,41.554233]]]}},{"type":"Feature","id":"059029","properties":{"istat":"059029","name":"Sonnino","province":"LT","label":[41.402732,13.248902]},"geometry":{"type":"Polygon","coordinates":[[[13.251485,41.433928],[13.252365,41.433279],[13.25314,41.43293],[13.254225,41.432647],[13.254682,41.432577],[13.261297,41.431496],[13.265858,41.430401],[13.270803,41.428925],[13.281286,41.424865],[13.28694,41.422394],[13.292983,41.419203],[13.296267,41.415797],[13.302814,41.406966],[13.306501,41.402556],[13.304757,41.402643],[13.303558,41.402612],[13.303407,41.402608],[13.30213,41.402481],[13.30107,41.402282],[13.299981,41.401845],[13.299368,41.401485],[13.292103,41.39707],[13.279473,41.396119],[13.268556,41.396881],[13.266738,41.397322],[13.264493,41.39764],[13.264095,41.397687],[13.262547,41.39787],[13.261077,41.397821],[13.260143,41.397455],[13.259074,41.39672],[13.258124,41.396057],[13.257436,41.395387],[13.257407,41.395346],[13.257385,41.395314],[13.256975,41.394709],[13.257072,41.393737],[13.258254,41.387593],[13.25996,41.380078],[13.262303,41.374269],[13.262901,41.373441],[13.264028,41.369676],[13.26404,41.369237],[13.264049,41.36891],[13.263617,41.368066],[13.263261,41.367633],[13.263038,41.367362],[13.260733,41.364598],[13.259919,41.361484],[13.260232,41.359129],[13.260585,41.357094],[13.258715,41.356812],[13.253172,41.356243],[13.250394,41.355959],[13.247919,41.355974],[13.246538,41.356205],[13.245879,41.356445],[13.245331,41.356646],[13.244069,41.357327],[13.243545,41.357702],[13.231177,41.355784],[13.223067,41.35598],[13.211326,41.359554],[13.210341,41.360135],[13.209207,41.360933],[13.198681,41.361138],[13.194792,41.361726],[13.189091,41.371762],[13.188951,41.371848],[13.188898,41.371885],[13.18699,41.373208],[13.185318,41.374385],[13.184815,41.374856],[13.184483,41.375167],[13.183219,41.377199],[13.182466,41.378437],[13.183811,41.382594],[13.185094,41.386279],[13.186297,41.389477],[13.186721,41.390605],[13.186839,41.390916],[13.186982,41.391292],[13.187954,41.393858],[13.18817,41.394429],[13.190283,41.399901],[13.191305,41.40239],[13.191403,41.40262],[13.191489,41.402821],[13.19232,41.404786],[13.192712,41.405739],[13.192945,41.406447],[13.193151,41.407158],[13.193016,41.408177],[13.192862,41.408498],[13.192749,41.408732],[13.191518,41.411258],[13.190952,41.412278],[13.189786,41.414013],[13.189929,41.41806],[13.19168,41.424421],[13.19685,41.43433],[13.199198,41.434681],[13.199379,41.43473],[13.199472,41.434757],[13.199744,41.434841],[13.199831,41.434871],[13.200219,41.435004],[13.204317,41.436542],[13.204514,41.436783],[13.20446,41.436987],[13.202131,41.44014],[13.207207,41.438553],[13.213443,41.440273],[13.222101,41.444494],[13.233741,41.449639],[13.236816,41.449692],[13.240952,41.446352],[13.241097,41.446182],[13.241768,41.44539],[13.242757,41.4434],[13.243058,41.442402],[13.243661,41.441376],[13.245088,41.4395],[13.24668,41.437703],[13.251485,41.433928]]]}},{"type":"Feature","id":"059030","properties":{"istat":"059030","name":"Sperlonga","province":"LT","label":[41.263112,13.445839]},"geometry":{"type":"Polygon","coordinates":[[[13.453148,41.283695],[13.45395,41.282727],[13.455605,41.281398],[13.460427,41.278376],[13.465829,41.273663],[13.469517,41.265515],[13.470403,41.262293],[13.470582,41.261322],[13.470634,41.260564],[13.470137,41.255811],[13.469891,41.255069],[13.469161,41.252099],[13.469173,41.25163],[13.470157,41.247841],[13.470594,41.247001],[13.471096,41.246374],[13.471209,41.246234],[13.471821,41.245548],[13.472954,41.245022],[13.47404,41.244561],[13.474823,41.243752],[13.475249,41.242817],[13.475317,41.241909],[13.475209,41.239433],[13.475068,41.239035],[13.474642,41.238593],[13.471647,41.237323],[13.470251,41.237779],[13.463529,41.240372],[13.461099,41.241731],[13.460415,41.243842],[13.459502,41.244509],[13.457146,41.246027],[13.452679,41.248565],[13.446426,41.251908],[13.444178,41.253024],[13.441941,41.25393],[13.440428,41.254332],[13.439187,41.254646],[13.428345,41.259331],[13.427764,41.25968],[13.425746,41.260817],[13.423577,41.262032],[13.419923,41.263931],[13.418365,41.264683],[13.411198,41.267984],[13.410175,41.268447],[13.408488,41.269154],[13.399336,41.272433],[13.396081,41.273593],[13.396869,41.275989],[13.404636,41.284834],[13.406383,41.288861],[13.409156,41.289223],[13.419671,41.289044],[13.42123,41.288759],[13.422658,41.288452],[13.430247,41.28671],[13.430694,41.286516],[13.432653,41.285446],[13.43868,41.281905],[13.446335,41.28408],[13.449707,41.285233],[13.453427,41.288019],[13.45335,41.287928],[13.453076,41.287389],[13.452964,41.28715],[13.452898,41.286928],[13.452658,41.285681],[13.452731,41.284994],[13.452946,41.284274],[13.453148,41.283695]]]}},{"type":"Feature","id":"059031","properties":{"istat":"059031","name":"Spigno Saturnia","province":"LT","label":[41.317855,13.698988]},"geometry":{"type":"Polygon","coordinates":[[[13.709216,41.358217],[13.709897,41.358225],[13.710572,41.357955],[13.711604,41.355958],[13.711928,41.355193],[13.712265,41.352443],[13.712207,41.347237],[13.712398,41.341142],[13.714701,41.337023],[13.717084,41.334948],[13.720822,41.333291],[13.733049,41.329515],[13.743505,41.321426],[13.748527,41.316226],[13.750373,41.315303],[13.752426,41.31475],[13.753985,41.311687],[13.748669,41.308787],[13.737064,41.300421],[13.733091,41.294583],[13.732446,41.293435],[13.729125,41.289122],[13.725067,41.2841],[13.724283,41.283264],[13.723403,41.282454],[13.722405,41.281603],[13.721085,41.280726],[13.718019,41.279357],[13.716897,41.279326],[13.711107,41.278074],[13.708035,41.276993],[13.704135,41.277773],[13.703863,41.277894],[13.695909,41.288452],[13.684991,41.303169],[13.678154,41.307539],[13.654998,41.314166],[13.651225,41.314652],[13.650884,41.31553],[13.650498,41.317446],[13.650696,41.317735],[13.651347,41.317974],[13.652809,41.318987],[13.65329,41.319377],[13.654485,41.320389],[13.654461,41.321139],[13.653023,41.324236],[13.651529,41.326328],[13.651827,41.328341],[13.652524,41.329879],[13.65566,41.334907],[13.657736,41.337758],[13.664834,41.341544],[13.668172,41.343124],[13.672868,41.341411],[13.680063,41.339619],[13.681442,41.339401],[13.682372,41.339511],[13.683051,41.339956],[13.683175,41.340037],[13.688635,41.343654],[13.690521,41.346886],[13.693274,41.350798],[13.69934,41.356506],[13.704186,41.358649],[13.709216,41.358217]]]}},{"type":"Feature","id":"059032","properties":{"istat":"059032","name":"Terracina","province":"LT","label":[41.318849,13.205396]},"geometry":{"type":"Polygon","coordinates":[[[13.198681,41.361138],[13.209207,41.360933],[13.210341,41.360135],[13.211326,41.359554],[13.223067,41.35598],[13.231177,41.355784],[13.243545,41.357702],[13.244069,41.357327],[13.245331,41.356646],[13.245879,41.356445],[13.246538,41.356205],[13.247919,41.355974],[13.250394,41.355959],[13.253172,41.356243],[13.258715,41.356812],[13.260585,41.357094],[13.260232,41.359129],[13.259919,41.361484],[13.260733,41.364598],[13.265361,41.360915],[13.267085,41.359423],[13.267918,41.358699],[13.268677,41.358027],[13.269357,41.357182],[13.26976,41.356384],[13.270381,41.353745],[13.27057,41.352892],[13.286882,41.330277],[13.292294,41.327586],[13.29729,41.329678],[13.306657,41.333103],[13.307504,41.33268],[13.308638,41.331805],[13.309675,41.330991],[13.309725,41.330931],[13.310417,41.330086],[13.313204,41.326244],[13.313287,41.325445],[13.310933,41.32264],[13.302194,41.315058],[13.300569,41.310611],[13.29195,41.30489],[13.286157,41.301177],[13.283955,41.299763],[13.283628,41.299546],[13.283089,41.299188],[13.281583,41.298081],[13.281304,41.297301],[13.281285,41.297151],[13.278912,41.297026],[13.277355,41.296881],[13.27227,41.296177],[13.26936,41.295642],[13.266448,41.294623],[13.266051,41.294475],[13.265761,41.294024],[13.265272,41.293042],[13.257563,41.282954],[13.25202,41.282862],[13.250735,41.283292],[13.248714,41.283576],[13.247956,41.283647],[13.246876,41.283742],[13.24661,41.283765],[13.245056,41.283898],[13.243501,41.284019],[13.241975,41.284109],[13.240434,41.284196],[13.236374,41.284344],[13.230565,41.284459],[13.228409,41.284447],[13.225603,41.284429],[13.22472,41.284415],[13.222875,41.284374],[13.219862,41.284301],[13.217589,41.284245],[13.215842,41.284115],[13.209951,41.283593],[13.207468,41.283332],[13.206327,41.283134],[13.187896,41.279431],[13.18223,41.278254],[13.181568,41.278077],[13.181021,41.277928],[13.178793,41.277294],[13.175229,41.276247],[13.173083,41.275589],[13.171854,41.275145],[13.157374,41.268964],[13.146259,41.263873],[13.140031,41.260325],[13.138961,41.259838],[13.137664,41.259247],[13.136827,41.258866],[13.136751,41.25884],[13.135253,41.258318],[13.127205,41.264677],[13.122888,41.26829],[13.122562,41.268651],[13.121864,41.269425],[13.118963,41.273973],[13.11785,41.275728],[13.115474,41.279924],[13.115061,41.280742],[13.114537,41.281781],[13.114258,41.282336],[13.112582,41.284525],[13.112337,41.284755],[13.111513,41.285153],[13.11034,41.285281],[13.109132,41.285351],[13.108415,41.285345],[13.107652,41.285318],[13.081954,41.283677],[13.063065,41.282478],[13.063021,41.282513],[13.062735,41.28275],[13.061997,41.283429],[13.061236,41.284528],[13.061114,41.284712],[13.060865,41.285101],[13.060935,41.285421],[13.061864,41.286329],[13.065237,41.288997],[13.07297,41.29481],[13.074022,41.295565],[13.076106,41.297018],[13.076878,41.297553],[13.099152,41.314847],[13.114676,41.327087],[13.11684,41.328694],[13.123181,41.333424],[13.127851,41.336145],[13.134079,41.340477],[13.140453,41.345143],[13.145984,41.349207],[13.147104,41.352845],[13.151099,41.356105],[13.154528,41.357449],[13.166157,41.359583],[13.169858,41.363638],[13.169923,41.364452],[13.169939,41.364657],[13.170338,41.365781],[13.171223,41.367865],[13.172961,41.370292],[13.173651,41.371008],[13.173833,41.371197],[13.175641,41.372792],[13.182466,41.378437],[13.183219,41.377199],[13.184483,41.375167],[13.184815,41.374856],[13.185318,41.374385],[13.18699,41.373208],[13.188898,41.371885],[13.188951,41.371848],[13.189091,41.371762],[13.194792,41.361726],[13.198681,41.361138]]]}},{"type":"Feature","id":"059033","properties":{"istat":"059033","name":"Ventotene","province":"LT","label":[40.794255,13.426686]},"geometry":{"type":"MultiPolygon","coordinates":[[[[13.456458,40.791779],[13.45866,40.790325],[13.459016,40.789802],[13.458995,40.789663],[13.458962,40.789471],[13.458914,40.789371],[13.458889,40.789326],[13.458742,40.789155],[13.458093,40.788411],[13.457893,40.788265],[13.457283,40.787861],[13.456087,40.787168],[13.452833,40.787091],[13.451913,40.787293],[13.451521,40.787417],[13.451098,40.787643],[13.450683,40.788557],[13.450208,40.790432],[13.450676,40.791052],[13.451252,40.791593],[13.45158,40.791756],[13.451879,40.791897],[13.452685,40.792231],[13.453518,40.792424],[13.453856,40.792429],[13.456458,40.791779]]],[[[13.435368,40.795038],[13.435329,40.794944],[13.435225,40.794713],[13.435133,40.79469],[13.434808,40.794551],[13.434727,40.794493],[13.434658,40.794516],[13.434542,40.794562],[13.434322,40.794818],[13.43434,40.794941],[13.434471,40.795038],[13.434594,40.795055],[13.435368,40.795038]]],[[[13.431828,40.80309],[13.433611,40.801668],[13.435052,40.798434],[13.435359,40.797144],[13.433931,40.795524],[13.431667,40.792986],[13.431284,40.792573],[13.431212,40.792511],[13.431137,40.792447],[13.428292,40.790383],[13.426693,40.789581],[13.414694,40.785034],[13.414469,40.784957],[13.413898,40.784885],[13.413185,40.784808],[13.411905,40.784799],[13.40894,40.784786],[13.408787,40.784819],[13.408008,40.785101],[13.407809,40.785302],[13.4076,40.785536],[13.407559,40.785744],[13.407594,40.785882],[13.409106,40.78709],[13.410077,40.787462],[13.410707,40.787614],[13.411029,40.787673],[13.41133,40.787716],[13.418473,40.792507],[13.42787,40.800331],[13.431828,40.80309]]]]}}]}
